zip,type,primary_city,latitude,longitude,irs_estimated_population_2014
73301,UNIQUE,Austin,30.26,-97.74,433
73344,UNIQUE,Austin,30.26,-97.74,0
75001,STANDARD,Addison,32.96,-96.83,14070
75002,STANDARD,Allen,33.1,-96.66,65000
75006,STANDARD,Carrollton,32.98,-96.89,48450
75007,STANDARD,Carrollton,33.01,-96.9,52050
75009,STANDARD,Celina,33.32,-96.78,10590
75010,STANDARD,Carrollton,33.05,-96.87,25260
75011,PO BOX,Carrollton,32.98,-96.89,1742
75013,STANDARD,Allen,33.11,-96.69,38880
75014,PO BOX,Irving,32.85,-96.96,410
75015,PO BOX,Irving,32.85,-96.96,1123
75016,PO BOX,Irving,32.85,-96.96,1202
75017,PO BOX,Irving,32.85,-96.96,570
75019,STANDARD,Coppell,32.96,-96.99,42580
75020,STANDARD,Denison,33.75,-96.56,18950
75021,STANDARD,Denison,33.73,-96.47,7160
75022,STANDARD,Flower Mound,33.02,-97.09,23610
75023,STANDARD,Plano,33.06,-96.73,44980
75024,STANDARD,Plano,33.08,-96.8,40070
75025,STANDARD,Plano,33.09,-96.74,52370
75026,PO BOX,Plano,33.04,-96.74,993
75027,PO BOX,Flower Mound,33.02,-97.09,670
75028,STANDARD,Flower Mound,33.03,-97.06,43790
75029,PO BOX,Lewisville,33.04,-96.98,1074
75030,PO BOX,Rowlett,32.9,-96.55,1039
75032,STANDARD,Rockwall,32.85,-96.44,29430
75033,STANDARD,Frisco,33.14,-96.81,0
75034,STANDARD,Frisco,33.14,-96.81,56190
75035,STANDARD,Frisco,33.16,-96.79,61020
75037,UNIQUE,Irving,32.78,-96.8,0
75038,STANDARD,Irving,32.87,-97,28790
75039,STANDARD,Irving,32.89,-96.94,15640
75040,STANDARD,Garland,32.91,-96.62,60860
75041,STANDARD,Garland,32.88,-96.65,31040
75042,STANDARD,Garland,32.91,-96.67,37960
75043,STANDARD,Garland,32.86,-96.58,57640
75044,STANDARD,Garland,32.96,-96.65,40270
75045,PO BOX,Garland,32.91,-96.62,709
75046,PO BOX,Garland,32.91,-96.62,797
75047,PO BOX,Garland,32.91,-96.62,301
75048,STANDARD,Sachse,32.97,-96.58,23010
75049,PO BOX,Garland,32.91,-96.62,971
75050,STANDARD,Grand Prairie,32.78,-97.01,40200
75051,STANDARD,Grand Prairie,32.73,-97,37730
75052,STANDARD,Grand Prairie,32.69,-97.01,88470
75053,PO BOX,Grand Prairie,32.69,-97.01,1604
75054,STANDARD,Grand Prairie,32.59,-97.04,11250
75056,STANDARD,The Colony,33.09,-96.88,54880
75057,STANDARD,Lewisville,33.04,-96.98,13950
75058,STANDARD,Gunter,33.45,-96.74,2940
75060,STANDARD,Irving,32.8,-96.95,47100
75061,STANDARD,Irving,32.83,-96.97,53150
75062,STANDARD,Irving,32.85,-96.96,46710
75063,STANDARD,Irving,32.92,-96.99,37680
75065,STANDARD,Lake Dallas,33.12,-97.02,10800
75067,STANDARD,Lewisville,33.01,-97,63990
75068,STANDARD,Little Elm,33.16,-96.93,46950
75069,STANDARD,Mckinney,33.18,-96.59,35280
75070,STANDARD,Mckinney,33.17,-96.7,89930
75071,STANDARD,Mckinney,33.2,-96.65,44410
75074,STANDARD,Plano,33.03,-96.67,46800
75075,STANDARD,Plano,33.04,-96.74,32620
75076,STANDARD,Pottsboro,33.77,-96.67,6680
75077,STANDARD,Lewisville,33.08,-97.06,35550
75078,STANDARD,Prosper,33.24,-96.78,18620
75080,STANDARD,Richardson,32.98,-96.74,40270
75081,STANDARD,Richardson,32.97,-96.7,34030
75082,STANDARD,Richardson,32.99,-96.66,21030
75083,PO BOX,Richardson,32.97,-96.7,1937
75085,PO BOX,Richardson,32.97,-96.7,523
75086,PO BOX,Plano,33.04,-96.74,1398
75087,STANDARD,Rockwall,32.92,-96.45,32800
75088,STANDARD,Rowlett,32.9,-96.55,24100
75089,STANDARD,Rowlett,32.94,-96.56,30600
75090,STANDARD,Sherman,33.61,-96.6,20760
75091,PO BOX,Sherman,33.61,-96.6,1891
75092,STANDARD,Sherman,33.66,-96.7,20700
75093,STANDARD,Plano,33.03,-96.81,46530
75094,STANDARD,Plano,33.02,-96.62,23370
75097,PO BOX,Weston,33.32,-96.64,280
75098,STANDARD,Wylie,33.04,-96.51,53260
75099,UNIQUE,Coppell,32.96,-96.99,0
75101,PO BOX,Bardwell,32.27,-96.7,738
75102,STANDARD,Barry,32.09,-96.63,1210
75103,STANDARD,Canton,32.54,-95.86,11640
75104,STANDARD,Cedar Hill,32.58,-96.95,44780
75105,STANDARD,Chatfield,32.29,-96.36,280
75106,PO BOX,Cedar Hill,32.58,-96.95,1480
75109,STANDARD,Corsicana,32.08,-96.39,3580
75110,STANDARD,Corsicana,32.08,-96.46,25790
75114,STANDARD,Crandall,32.63,-96.45,5260
75115,STANDARD,Desoto,32.58,-96.86,47850
75116,STANDARD,Duncanville,32.66,-96.91,19430
75117,STANDARD,Edgewood,32.69,-95.88,3400
75118,PO BOX,Elmo,32.68,-96.21,246
75119,STANDARD,Ennis,32.33,-96.62,24190
75120,PO BOX,Ennis,32.33,-96.62,1273
75121,PO BOX,Copeville,33.08,-96.42,575
75123,PO BOX,Desoto,32.58,-96.86,1372
75124,STANDARD,Eustace,32.3,-96.01,3900
75125,STANDARD,Ferris,32.53,-96.66,6790
75126,STANDARD,Forney,32.75,-96.46,40870
75127,STANDARD,Fruitvale,32.68,-95.8,1370
75132,PO BOX,Fate,32.94,-96.38,706
75134,STANDARD,Lancaster,32.62,-96.78,19040
75135,STANDARD,Caddo Mills,33.06,-96.22,6030
75137,STANDARD,Duncanville,32.64,-96.91,18470
75138,PO BOX,Duncanville,32.64,-96.91,1513
75140,STANDARD,Grand Saline,32.67,-95.71,5930
75141,STANDARD,Hutchins,32.64,-96.7,3500
75142,STANDARD,Kaufman,32.58,-96.3,18090
75143,STANDARD,Kemp,32.43,-96.22,11570
75144,STANDARD,Kerens,32.13,-96.22,2690
75146,STANDARD,Lancaster,32.59,-96.78,19170
75147,STANDARD,Mabank,32.36,-96.1,6260
75148,STANDARD,Malakoff,32.17,-96.01,4630
75149,STANDARD,Mesquite,32.76,-96.59,55150
75150,STANDARD,Mesquite,32.82,-96.63,57610
75151,PO BOX,Corsicana,32.08,-96.46,1432
75152,STANDARD,Palmer,32.42,-96.67,4710
75153,STANDARD,Powell,32.16,-96.33,610
75154,STANDARD,Red Oak,32.51,-96.8,37570
75155,STANDARD,Rice,32.24,-96.5,2510
75156,STANDARD,Mabank,32.25,-96.08,11130
75157,PO BOX,Rosser,32.46,-96.44,369
75158,STANDARD,Scurry,32.47,-96.41,4250
75159,STANDARD,Seagoville,32.65,-96.54,15970
75160,STANDARD,Terrell,32.73,-96.29,22350
75161,STANDARD,Terrell,32.74,-96.17,5480
75163,STANDARD,Trinidad,32.14,-96.09,1870
75164,PO BOX,Josephine,33.07,-96.31,633
75165,STANDARD,Waxahachie,32.4,-96.85,37800
75166,STANDARD,Lavon,33.02,-96.43,4260
75167,STANDARD,Waxahachie,32.36,-96.92,8510
75168,PO BOX,Waxahachie,32.4,-96.85,1145
75169,STANDARD,Wills Point,32.7,-96,12390
75172,STANDARD,Wilmer,32.59,-96.68,4080
75173,STANDARD,Nevada,33.03,-96.37,4630
75180,STANDARD,Balch Springs,32.72,-96.62,23110
75181,STANDARD,Mesquite,32.73,-96.56,25760
75182,STANDARD,Sunnyvale,32.79,-96.55,6380
75185,PO BOX,Mesquite,32.76,-96.59,1449
75187,PO BOX,Mesquite,32.76,-96.59,714
75189,STANDARD,Royse City,32.97,-96.33,25040
75201,STANDARD,Dallas,32.79,-96.8,10340
75202,STANDARD,Dallas,32.78,-96.8,2120
75203,STANDARD,Dallas,32.75,-96.8,13610
75204,STANDARD,Dallas,32.8,-96.79,24620
75205,STANDARD,Dallas,32.84,-96.8,18900
75206,STANDARD,Dallas,32.83,-96.77,30030
75207,STANDARD,Dallas,32.79,-96.82,2130
75208,STANDARD,Dallas,32.75,-96.84,29360
75209,STANDARD,Dallas,32.85,-96.83,13190
75210,STANDARD,Dallas,32.77,-96.75,6030
75211,STANDARD,Dallas,32.74,-96.91,71000
75212,STANDARD,Dallas,32.78,-96.88,24200
75214,STANDARD,Dallas,32.83,-96.75,31680
75215,STANDARD,Dallas,32.75,-96.76,13150
75216,STANDARD,Dallas,32.71,-96.78,45670
75217,STANDARD,Dallas,32.71,-96.68,81980
75218,STANDARD,Dallas,32.84,-96.7,21490
75219,STANDARD,Dallas,32.81,-96.81,22420
75220,STANDARD,Dallas,32.87,-96.88,39220
75221,PO BOX,Dallas,32.79,-96.76,281
75222,PO BOX,Dallas,32.79,-96.76,1265
75223,STANDARD,Dallas,32.79,-96.76,13500
75224,STANDARD,Dallas,32.71,-96.84,31390
75225,STANDARD,Dallas,32.86,-96.79,21690
75226,STANDARD,Dallas,32.78,-96.78,2620
75227,STANDARD,Dallas,32.77,-96.69,55030
75228,STANDARD,Dallas,32.82,-96.68,63990
75229,STANDARD,Dallas,32.89,-96.86,33420
75230,STANDARD,Dallas,32.9,-96.79,25360
75231,STANDARD,Dallas,32.87,-96.75,34440
75232,STANDARD,Dallas,32.66,-96.84,27800
75233,STANDARD,Dallas,32.7,-96.87,13600
75234,STANDARD,Dallas,32.92,-96.89,29920
75235,STANDARD,Dallas,32.83,-96.85,16360
75236,STANDARD,Dallas,32.68,-96.94,15900
75237,STANDARD,Dallas,32.67,-96.87,15530
75238,STANDARD,Dallas,32.88,-96.71,29700
75240,STANDARD,Dallas,32.93,-96.79,24230
75241,STANDARD,Dallas,32.67,-96.76,26570
75242,STANDARD,Dallas,32.79,-96.76,20
75243,STANDARD,Dallas,32.91,-96.74,56300
75244,STANDARD,Dallas,32.93,-96.84,12070
75245,STANDARD,Dallas,32.82,-96.83,66
75246,STANDARD,Dallas,32.79,-96.77,1960
75247,STANDARD,Dallas,32.81,-96.88,890
75248,STANDARD,Dallas,32.97,-96.8,33270
75249,STANDARD,Dallas,32.64,-96.96,14670
75250,PO BOX,Dallas,32.79,-96.76,164
75251,STANDARD,Dallas,32.92,-96.77,2300
75252,STANDARD,Dallas,33,-96.79,21910
75253,STANDARD,Dallas,32.67,-96.61,19020
75254,STANDARD,Dallas,32.94,-96.8,22700
75258,STANDARD,Dallas,32.8,-96.88,0
75260,STANDARD,Dallas,32.79,-96.76,0
75261,PO BOX,Dallas,32.79,-96.76,550
75262,PO BOX,Dallas,32.79,-96.76,0
75263,PO BOX,Dallas,32.79,-96.76,0
75264,PO BOX,Dallas,32.79,-96.76,0
75265,PO BOX,Dallas,32.79,-96.76,57
75266,PO BOX,Dallas,32.79,-96.76,45
75267,PO BOX,Dallas,32.79,-96.76,0
75270,STANDARD,Dallas,32.78,-96.8,42
75275,UNIQUE,Dallas,32.79,-96.76,192
75277,UNIQUE,Dallas,32.79,-96.76,19
75283,UNIQUE,Dallas,32.79,-96.76,246
75284,UNIQUE,Dallas,32.79,-96.76,21
75285,UNIQUE,Dallas,32.79,-96.76,0
75286,UNIQUE,Dallas,32.78,-96.8,20
75287,STANDARD,Dallas,33,-96.84,48340
75301,UNIQUE,Dallas,32.79,-96.76,0
75303,UNIQUE,Dallas,32.79,-96.76,0
75310,UNIQUE,Dallas,32.78,-96.8,0
75312,UNIQUE,Dallas,32.79,-96.76,0
75313,PO BOX,Dallas,32.79,-96.76,289
75315,PO BOX,Dallas,32.79,-96.76,652
75320,UNIQUE,Dallas,32.79,-96.76,0
75323,UNIQUE,Dallas,32.96,-96.8,33
75326,UNIQUE,Dallas,32.79,-96.76,0
75334,PO BOX,Dallas,32.67,-96.61,0
75336,PO BOX,Dallas,32.79,-96.76,401
75339,PO BOX,Dallas,32.79,-96.76,537
75340,PO BOX,Dallas,32.76,-96.86,0
75342,STANDARD,Dallas,32.79,-96.76,100
75343,PO BOX,Dallas,32.76,-96.86,0
75344,PO BOX,Dallas,32.78,-96.79,0
75353,UNIQUE,Dallas,32.78,-96.8,0
75354,PO BOX,Dallas,32.79,-96.76,971
75355,PO BOX,Dallas,32.79,-96.76,579
75356,PO BOX,Dallas,32.79,-96.76,283
75357,PO BOX,Dallas,32.79,-96.76,713
75358,UNIQUE,Dallas,32.94,-96.87,0
75359,PO BOX,Dallas,32.79,-96.76,105
75360,PO BOX,Dallas,32.79,-96.76,778
75363,UNIQUE,Dallas,32.93,-96.79,0
75364,UNIQUE,Dallas,32.78,-96.8,0
75367,PO BOX,Dallas,32.79,-96.76,396
75368,UNIQUE,Dallas,32.79,-96.76,0
75370,PO BOX,Dallas,32.79,-96.76,1105
75371,PO BOX,Dallas,32.79,-96.76,185
75372,PO BOX,Dallas,32.79,-96.76,592
75373,UNIQUE,Dallas,32.79,-96.76,0
75374,PO BOX,Dallas,32.79,-96.76,1146
75376,PO BOX,Dallas,32.79,-96.76,838
75378,PO BOX,Dallas,32.79,-96.76,33
75379,PO BOX,Dallas,32.79,-96.76,771
75380,PO BOX,Dallas,32.79,-96.76,745
75381,PO BOX,Dallas,32.79,-96.76,510
75382,PO BOX,Dallas,32.79,-96.76,1041
75386,UNIQUE,Dallas,32.78,-96.87,0
75387,UNIQUE,Dallas,32.78,-96.8,0
75388,UNIQUE,Dallas,32.78,-96.8,0
75389,UNIQUE,Dallas,32.79,-96.76,0
75390,UNIQUE,Dallas,32.81,-96.84,15
75391,UNIQUE,Dallas,32.79,-96.76,0
75392,UNIQUE,Dallas,32.79,-96.76,0
75393,UNIQUE,Dallas,32.79,-96.76,0
75394,UNIQUE,Dallas,32.79,-96.76,0
75395,UNIQUE,Dallas,32.79,-96.76,0
75396,UNIQUE,Dallas,32.78,-96.8,0
75397,UNIQUE,Dallas,32.79,-96.76,0
75398,STANDARD,Dallas,32.79,-96.76,0
75401,STANDARD,Greenville,33.19,-96.11,15880
75402,STANDARD,Greenville,33.11,-96.1,14870
75403,PO BOX,Greenville,33.11,-96.1,961
75404,PO BOX,Greenville,33.11,-96.1,745
75407,STANDARD,Princeton,33.18,-96.5,15500
75409,STANDARD,Anna,33.35,-96.54,14220
75410,STANDARD,Alba,32.79,-95.63,3800
75411,STANDARD,Arthur City,33.86,-95.65,830
75412,STANDARD,Bagwell,33.82,-95.14,550
75413,PO BOX,Bailey,33.44,-96.18,312
75414,STANDARD,Bells,33.62,-96.41,2810
75415,STANDARD,Ben Franklin,33.47,-95.77,157
75416,STANDARD,Blossom,33.66,-95.38,2690
75417,STANDARD,Bogata,33.46,-95.21,1990
75418,STANDARD,Bonham,33.58,-96.18,9770
75420,STANDARD,Brashear,33.11,-95.72,990
75421,STANDARD,Brookston,33.66,-95.73,920
75422,STANDARD,Campbell,33.14,-95.95,2470
75423,STANDARD,Celeste,33.29,-96.19,2390
75424,STANDARD,Blue Ridge,33.29,-96.39,3170
75425,PO BOX,Chicota,33.86,-95.57,137
75426,STANDARD,Clarksville,33.61,-95.05,4060
75428,STANDARD,Commerce,33.23,-95.9,6570
75429,PO BOX,Commerce,33.23,-95.9,999
75431,STANDARD,Como,33.06,-95.47,1840
75432,STANDARD,Cooper,33.37,-95.69,2720
75433,STANDARD,Cumby,33.13,-95.83,2260
75434,PO BOX,Cunningham,33.42,-95.35,92
75435,STANDARD,Deport,33.48,-95.32,840
75436,STANDARD,Detroit,33.66,-95.26,1760
75437,STANDARD,Dike,33.26,-95.47,990
75438,STANDARD,Dodd City,33.57,-96.07,950
75439,STANDARD,Ector,33.57,-96.27,810
75440,STANDARD,Emory,32.87,-95.76,5300
75441,PO BOX,Enloe,33.43,-95.65,109
75442,STANDARD,Farmersville,33.16,-96.35,8350
75443,PO BOX,Gober,33.46,-96.1,108
75444,PO BOX,Golden,32.72,-95.56,483
75446,STANDARD,Honey Grove,33.58,-95.9,2970
75447,STANDARD,Ivanhoe,33.71,-96.14,900
75448,STANDARD,Klondike,33.32,-95.75,520
75449,STANDARD,Ladonia,33.42,-95.94,860
75450,STANDARD,Lake Creek,33.4,-95.48,200
75451,STANDARD,Leesburg,32.96,-95.1,1040
75452,STANDARD,Leonard,33.38,-96.24,3970
75453,STANDARD,Lone Oak,32.99,-95.94,2930
75454,STANDARD,Melissa,33.28,-96.57,8600
75455,STANDARD,Mount Pleasant,33.16,-94.97,25590
75456,PO BOX,Mount Pleasant,33.16,-94.97,2288
75457,STANDARD,Mount Vernon,33.17,-95.22,5610
75458,PO BOX,Merit,33.21,-96.28,353
75459,STANDARD,Howe,33.51,-96.61,4030
75460,STANDARD,Paris,33.66,-95.54,18290
75461,PO BOX,Paris,33.66,-95.54,1348
75462,STANDARD,Paris,33.62,-95.49,10130
75468,STANDARD,Pattonville,33.56,-95.39,830
75469,STANDARD,Pecan Gap,33.43,-95.85,300
75470,STANDARD,Petty,33.61,-95.79,208
75471,STANDARD,Pickton,33.06,-95.37,1230
75472,STANDARD,Point,32.93,-95.87,2830
75473,STANDARD,Powderly,33.77,-95.53,3180
75474,STANDARD,Quinlan,32.9,-96.13,12340
75475,PO BOX,Randolph,33.47,-96.24,233
75476,STANDARD,Ravenna,33.71,-96.24,1050
75477,STANDARD,Roxton,33.54,-95.72,720
75478,STANDARD,Saltillo,33.19,-95.34,820
75479,STANDARD,Savoy,33.59,-96.36,1430
75480,STANDARD,Scroggins,33.02,-95.2,1250
75481,STANDARD,Sulphur Bluff,33.33,-95.36,320
75482,STANDARD,Sulphur Springs,33.14,-95.61,21780
75483,PO BOX,Sulphur Springs,33.14,-95.61,1115
75485,PO BOX,Westminster,33.35,-96.45,314
75486,STANDARD,Sumner,33.77,-95.71,2300
75487,STANDARD,Talco,33.36,-95.1,1180
75488,STANDARD,Telephone,33.8,-96,940
75489,PO BOX,Tom Bean,33.52,-96.48,1249
75490,STANDARD,Trenton,33.42,-96.33,2150
75491,STANDARD,Whitewright,33.51,-96.39,4230
75492,STANDARD,Windom,33.56,-95.99,470
75493,PO BOX,Winfield,33.15,-95.11,680
75494,STANDARD,Winnsboro,32.95,-95.28,8940
75495,STANDARD,Van Alstyne,33.41,-96.57,7180
75496,STANDARD,Wolfe City,33.36,-96.06,2730
75497,STANDARD,Yantis,32.93,-95.57,2860
75501,STANDARD,Texarkana,33.44,-94.07,29880
75503,STANDARD,Texarkana,33.51,-94.13,22290
75504,PO BOX,Texarkana,33.44,-94.07,714
75505,PO BOX,Texarkana,33.44,-94.07,1626
75507,UNIQUE,Texarkana,33.44,-94.07,0
75550,STANDARD,Annona,33.58,-94.91,660
75551,STANDARD,Atlanta,33.11,-94.16,9330
75554,STANDARD,Avery,33.55,-94.77,1410
75555,STANDARD,Bivins,32.95,-94.14,1220
75556,STANDARD,Bloomburg,33.13,-94.05,1140
75558,STANDARD,Cookville,33.18,-94.86,1320
75559,STANDARD,De Kalb,33.5,-94.61,4920
75560,STANDARD,Douglassville,33.19,-94.35,890
75561,STANDARD,Hooks,33.52,-94.28,4640
75562,PO BOX,Kildare,32.93,-94.25,96
75563,STANDARD,Linden,33.01,-94.36,3360
75564,PO BOX,Lodi,32.86,-94.3,148
75565,PO BOX,Mc Leod,32.93,-94.08,602
75566,STANDARD,Marietta,33.17,-94.54,550
75567,STANDARD,Maud,33.33,-94.34,3400
75568,STANDARD,Naples,33.2,-94.67,2340
75569,STANDARD,Nash,33.44,-94.12,3130
75570,STANDARD,New Boston,33.46,-94.41,7800
75571,STANDARD,Omaha,33.17,-94.74,2380
75572,STANDARD,Queen City,33.14,-94.15,3060
75573,PO BOX,Redwater,33.35,-94.25,1027
75574,STANDARD,Simms,33.35,-94.5,1550
75599,UNIQUE,Texarkana,33.44,-94.07,0
75601,STANDARD,Longview,32.51,-94.76,13130
75602,STANDARD,Longview,32.45,-94.67,20890
75603,STANDARD,Longview,32.4,-94.71,5330
75604,STANDARD,Longview,32.51,-94.82,27420
75605,STANDARD,Longview,32.58,-94.73,26530
75606,PO BOX,Longview,32.51,-94.76,1736
75607,PO BOX,Longview,32.51,-94.76,1897
75608,PO BOX,Longview,32.51,-94.76,1479
75615,PO BOX,Longview,32.51,-94.76,512
75630,STANDARD,Avinger,32.89,-94.55,1980
75631,STANDARD,Beckville,32.24,-94.45,2500
75633,STANDARD,Carthage,32.15,-94.33,13170
75636,PO BOX,Cason,33.03,-94.81,371
75637,PO BOX,Clayton,32.08,-94.49,123
75638,STANDARD,Daingerfield,33.03,-94.72,4580
75639,STANDARD,De Berry,32.21,-94.14,2400
75640,STANDARD,Diana,32.69,-94.66,4330
75641,PO BOX,Easton,32.38,-94.58,271
75642,PO BOX,Elysian Fields,32.37,-94.18,525
75643,STANDARD,Gary,32.02,-94.36,1740
75644,STANDARD,Gilmer,32.73,-94.94,10300
75645,STANDARD,Gilmer,32.69,-94.87,8420
75647,STANDARD,Gladewater,32.54,-94.94,11730
75650,STANDARD,Hallsville,32.5,-94.57,9010
75651,STANDARD,Harleton,32.66,-94.52,2080
75652,STANDARD,Henderson,32.24,-94.73,10940
75653,PO BOX,Henderson,32.15,-94.79,1660
75654,STANDARD,Henderson,32.15,-94.79,10830
75656,STANDARD,Hughes Springs,32.99,-94.63,4150
75657,STANDARD,Jefferson,32.76,-94.34,6520
75658,PO BOX,Joinerville,32.17,-94.9,271
75659,PO BOX,Jonesville,32.49,-94.11,226
75660,PO BOX,Judson,32.59,-94.76,484
75661,STANDARD,Karnack,32.62,-94.14,1920
75662,STANDARD,Kilgore,32.38,-94.86,22190
75663,PO BOX,Kilgore,32.38,-94.86,2304
75666,PO BOX,Laird Hill,32.35,-94.9,591
75667,STANDARD,Laneville,31.94,-94.85,940
75668,STANDARD,Lone Star,32.93,-94.7,1610
75669,STANDARD,Long Branch,32.04,-94.5,520
75670,STANDARD,Marshall,32.53,-94.35,14840
75671,PO BOX,Marshall,32.53,-94.35,1944
75672,STANDARD,Marshall,32.47,-94.3,14340
75680,PO BOX,Minden,32.04,-94.76,115
75681,STANDARD,Mount Enterprise,31.91,-94.68,2260
75682,PO BOX,New London,32.26,-94.93,682
75683,STANDARD,Ore City,32.8,-94.71,3210
75684,STANDARD,Overton,32.27,-94.97,5210
75685,PO BOX,Panola,32.35,-94.09,313
75686,STANDARD,Pittsburg,32.99,-94.96,11670
75687,PO BOX,Price,32.08,-94.94,261
75688,PO BOX,Scottsville,32.53,-94.24,429
75689,PO BOX,Selman City,32.18,-94.95,225
75691,STANDARD,Tatum,32.31,-94.55,4190
75692,STANDARD,Waskom,32.47,-94.06,4580
75693,STANDARD,White Oak,32.53,-94.85,6310
75694,PO BOX,Woodlawn,32.66,-94.34,378
75701,STANDARD,Tyler,32.32,-95.3,27760
75702,STANDARD,Tyler,32.36,-95.32,23520
75703,STANDARD,Tyler,32.24,-95.32,35990
75704,STANDARD,Tyler,32.41,-95.44,7940
75705,STANDARD,Tyler,32.36,-95.09,1900
75706,STANDARD,Tyler,32.47,-95.31,8270
75707,STANDARD,Tyler,32.3,-95.18,13280
75708,STANDARD,Tyler,32.42,-95.21,6860
75709,STANDARD,Tyler,32.3,-95.39,4690
75710,PO BOX,Tyler,32.32,-95.3,741
75711,PO BOX,Tyler,32.32,-95.3,2017
75712,PO BOX,Tyler,32.32,-95.3,875
75713,PO BOX,Tyler,32.32,-95.3,1551
75750,STANDARD,Arp,32.22,-95.05,3440
75751,STANDARD,Athens,32.2,-95.85,14690
75752,STANDARD,Athens,32.24,-95.81,5600
75754,STANDARD,Ben Wheeler,32.41,-95.66,5000
75755,STANDARD,Big Sandy,32.58,-95.11,4550
75756,STANDARD,Brownsboro,32.29,-95.61,3640
75757,STANDARD,Bullard,32.14,-95.31,10570
75758,STANDARD,Chandler,32.3,-95.47,8290
75759,PO BOX,Cuney,32.03,-95.41,125
75760,STANDARD,Cushing,31.81,-94.84,2080
75762,STANDARD,Flint,32.2,-95.39,12440
75763,STANDARD,Frankston,32.05,-95.5,4830
75764,PO BOX,Gallatin,31.9,-95.14,269
75765,STANDARD,Hawkins,32.59,-95.2,5950
75766,STANDARD,Jacksonville,31.96,-95.26,23770
75770,STANDARD,Larue,32.14,-95.64,2230
75771,STANDARD,Lindale,32.5,-95.4,18080
75772,PO BOX,Maydelle,31.85,-95.32,162
75773,STANDARD,Mineola,32.66,-95.48,10660
75778,STANDARD,Murchison,32.27,-95.75,2650
75779,PO BOX,Neches,31.86,-95.48,484
75780,PO BOX,New Summerfield,31.99,-95.09,1053
75782,PO BOX,Poynor,32.07,-95.59,357
75783,STANDARD,Quitman,32.79,-95.44,6200
75784,STANDARD,Reklaw,31.86,-94.98,580
75785,STANDARD,Rusk,31.79,-95.14,7940
75788,PO BOX,Sacul,31.83,-94.93,111
75789,STANDARD,Troup,32.14,-95.12,6740
75790,STANDARD,Van,32.52,-95.63,4370
75791,STANDARD,Whitehouse,32.22,-95.21,12370
75792,STANDARD,Winona,32.49,-95.17,2930
75797,UNIQUE,Big Sandy,32.58,-95.11,0
75798,UNIQUE,Tyler,32.32,-95.3,0
75799,UNIQUE,Tyler,32.32,-95.3,0
75801,STANDARD,Palestine,31.75,-95.64,13990
75802,PO BOX,Palestine,31.75,-95.64,1830
75803,STANDARD,Palestine,31.88,-95.68,12940
75831,STANDARD,Buffalo,31.46,-96.06,4760
75832,PO BOX,Cayuga,31.95,-95.97,199
75833,STANDARD,Centerville,31.25,-95.97,2990
75834,STANDARD,Centralia,31.26,-94.97,0
75835,STANDARD,Crockett,31.31,-95.45,9050
75838,STANDARD,Donie,31.47,-96.24,510
75839,STANDARD,Elkhart,31.62,-95.57,4460
75840,STANDARD,Fairfield,31.71,-96.16,7010
75844,STANDARD,Grapeland,31.49,-95.48,4290
75845,STANDARD,Groveton,31.05,-95.12,2200
75846,STANDARD,Jewett,31.36,-96.14,2310
75847,STANDARD,Kennard,31.35,-95.18,1220
75848,PO BOX,Kirvin,31.77,-96.33,138
75849,PO BOX,Latexo,31.42,-95.48,417
75850,STANDARD,Leona,31.15,-95.97,370
75851,STANDARD,Lovelady,31.12,-95.44,2080
75852,STANDARD,Midway,31.02,-95.75,1440
75853,STANDARD,Montalba,31.93,-95.76,850
75855,STANDARD,Oakwood,31.58,-95.84,1960
75856,STANDARD,Pennington,31.19,-95.26,230
75858,PO BOX,Ratcliff,31.39,-95.13,216
75859,STANDARD,Streetman,31.87,-96.32,1590
75860,STANDARD,Teague,31.63,-96.28,5040
75861,STANDARD,Tennessee Colony,31.88,-95.91,1470
75862,STANDARD,Trinity,30.94,-95.37,7810
75865,PO BOX,Woodlake,30.99,-95.03,142
75880,UNIQUE,Tennessee Colony,31.88,-95.91,18
75882,UNIQUE,Palestine,31.75,-95.64,11
75884,UNIQUE,Tennessee Colony,31.88,-95.91,40
75886,UNIQUE,Tennessee Colony,31.88,-95.91,47
75901,STANDARD,Lufkin,31.33,-94.72,24930
75902,PO BOX,Lufkin,31.33,-94.72,1249
75903,PO BOX,Lufkin,31.33,-94.72,538
75904,STANDARD,Lufkin,31.34,-94.83,29740
75915,PO BOX,Lufkin,31.33,-94.72,1812
75925,STANDARD,Alto,31.65,-95.07,3160
75926,STANDARD,Apple Springs,31.26,-94.97,900
75928,STANDARD,Bon Wier,30.68,-93.75,1040
75929,STANDARD,Broaddus,31.3,-94.26,1140
75930,STANDARD,Bronson,31.34,-94,1370
75931,STANDARD,Brookeland,31.09,-93.97,1910
75932,STANDARD,Burkeville,30.99,-93.66,1110
75933,STANDARD,Call,30.61,-93.87,1360
75934,PO BOX,Camden,30.89,-94.76,239
75935,STANDARD,Center,31.79,-94.17,12910
75936,STANDARD,Chester,30.92,-94.6,710
75937,STANDARD,Chireno,31.49,-94.34,970
75938,STANDARD,Colmesneil,30.9,-94.42,2120
75939,STANDARD,Corrigan,30.99,-94.82,3450
75941,STANDARD,Diboll,31.18,-94.78,7120
75942,PO BOX,Doucette,30.82,-94.43,371
75943,STANDARD,Douglass,31.65,-94.87,1260
75944,STANDARD,Etoile,31.34,-94.41,1040
75946,STANDARD,Garrison,31.82,-94.49,2880
75948,STANDARD,Hemphill,31.34,-93.85,4630
75949,STANDARD,Huntington,31.27,-94.57,6910
75951,STANDARD,Jasper,30.92,-93.99,13320
75954,STANDARD,Joaquin,31.96,-94.05,2950
75956,STANDARD,Kirbyville,30.65,-93.89,6280
75958,PO BOX,Martinsville,31.64,-94.43,259
75959,STANDARD,Milam,31.51,-93.86,690
75960,STANDARD,Moscow,30.92,-94.93,800
75961,STANDARD,Nacogdoches,31.61,-94.65,11220
75962,UNIQUE,Nacogdoches,31.62,-94.65,369
75963,PO BOX,Nacogdoches,31.61,-94.65,2456
75964,STANDARD,Nacogdoches,31.63,-94.74,16630
75965,STANDARD,Nacogdoches,31.72,-94.63,13060
75966,STANDARD,Newton,30.85,-93.75,3620
75968,STANDARD,Pineland,31.24,-93.97,1590
75969,STANDARD,Pollok,31.42,-94.86,3120
75972,STANDARD,San Augustine,31.52,-94.11,5140
75973,STANDARD,Shelbyville,31.7,-93.95,2050
75974,STANDARD,Tenaha,31.94,-94.24,2820
75975,STANDARD,Timpson,31.9,-94.39,2960
75976,PO BOX,Wells,31.49,-94.94,1026
75977,STANDARD,Wiergate,30.99,-93.7,510
75978,PO BOX,Woden,31.51,-94.53,372
75979,STANDARD,Woodville,30.77,-94.42,6670
75980,STANDARD,Zavalla,31.15,-94.41,1940
75990,UNIQUE,Woodville,30.77,-94.42,0
76001,STANDARD,Arlington,32.64,-97.15,31050
76002,STANDARD,Arlington,32.62,-97.09,32940
76003,PO BOX,Arlington,32.69,-97.12,1220
76004,PO BOX,Arlington,32.69,-97.12,856
76005,PO BOX,Arlington,32.69,-97.12,404
76006,STANDARD,Arlington,32.78,-97.1,23120
76007,PO BOX,Arlington,32.69,-97.12,801
76008,STANDARD,Aledo,32.69,-97.6,15870
76009,STANDARD,Alvarado,32.41,-97.21,19540
76010,STANDARD,Arlington,32.72,-97.08,51710
76011,STANDARD,Arlington,32.75,-97.08,20970
76012,STANDARD,Arlington,32.76,-97.14,24760
76013,STANDARD,Arlington,32.72,-97.16,26930
76014,STANDARD,Arlington,32.69,-97.09,34050
76015,STANDARD,Arlington,32.69,-97.12,15860
76016,STANDARD,Arlington,32.69,-97.19,29890
76017,STANDARD,Arlington,32.66,-97.16,42920
76018,STANDARD,Arlington,32.67,-97.1,26900
76019,UNIQUE,Arlington,32.69,-97.12,185
76020,STANDARD,Azle,32.89,-97.53,24450
76021,STANDARD,Bedford,32.84,-97.13,32680
76022,STANDARD,Bedford,32.83,-97.15,13040
76023,STANDARD,Boyd,33.08,-97.56,5580
76028,STANDARD,Burleson,32.53,-97.32,62020
76031,STANDARD,Cleburne,32.35,-97.33,15290
76033,STANDARD,Cleburne,32.34,-97.4,23600
76034,STANDARD,Colleyville,32.89,-97.14,24990
76035,STANDARD,Cresson,32.53,-97.65,1530
76036,STANDARD,Crowley,32.57,-97.35,23580
76039,STANDARD,Euless,32.84,-97.07,33920
76040,STANDARD,Euless,32.81,-97.09,28310
76041,STANDARD,Forreston,32.24,-96.84,390
76043,STANDARD,Glen Rose,32.23,-97.75,6390
76044,STANDARD,Godley,32.44,-97.52,3770
76048,STANDARD,Granbury,32.44,-97.78,20050
76049,STANDARD,Granbury,32.46,-97.71,25150
76050,STANDARD,Grandview,32.26,-97.17,5640
76051,STANDARD,Grapevine,32.93,-97.07,47410
76052,STANDARD,Haslet,32.95,-97.33,18960
76053,STANDARD,Hurst,32.83,-97.17,28460
76054,STANDARD,Hurst,32.86,-97.18,12080
76055,STANDARD,Itasca,32.15,-97.14,2490
76058,STANDARD,Joshua,32.46,-97.38,16780
76059,STANDARD,Keene,32.39,-97.33,4200
76060,STANDARD,Kennedale,32.64,-97.21,7320
76061,PO BOX,Lillian,32.5,-97.19,530
76063,STANDARD,Mansfield,32.56,-97.11,65860
76064,STANDARD,Maypearl,32.31,-97,1910
76065,STANDARD,Midlothian,32.49,-96.99,33310
76066,STANDARD,Millsap,32.75,-98,2670
76067,STANDARD,Mineral Wells,32.82,-98.07,16750
76068,PO BOX,Mineral Wells,32.82,-98.07,1263
76070,STANDARD,Nemo,32.28,-97.64,410
76071,STANDARD,Newark,33,-97.44,3620
76073,STANDARD,Paradise,33.08,-97.7,5050
76077,STANDARD,Rainbow,32.28,-97.7,520
76078,STANDARD,Rhome,33.05,-97.46,8890
76082,STANDARD,Springtown,32.96,-97.68,16970
76084,STANDARD,Venus,32.42,-97.1,7530
76085,STANDARD,Weatherford,32.83,-97.7,10260
76086,STANDARD,Weatherford,32.75,-97.77,18320
76087,STANDARD,Weatherford,32.68,-97.78,26040
76088,STANDARD,Weatherford,32.85,-97.9,10950
76092,STANDARD,Southlake,32.95,-97.14,29990
76093,STANDARD,Rio Vista,32.23,-97.37,2100
76094,PO BOX,Arlington,32.69,-97.12,584
76095,PO BOX,Bedford,32.84,-97.13,1107
76096,PO BOX,Arlington,32.69,-97.12,1358
76097,PO BOX,Burleson,32.53,-97.32,1581
76098,PO BOX,Azle,32.89,-97.53,1418
76099,PO BOX,Grapevine,32.93,-97.07,1053
76101,PO BOX,Fort Worth,32.75,-97.33,612
76102,STANDARD,Fort Worth,32.75,-97.33,6730
76103,STANDARD,Fort Worth,32.75,-97.27,13860
76104,STANDARD,Fort Worth,32.73,-97.32,15350
76105,STANDARD,Fort Worth,32.72,-97.27,21550
76106,STANDARD,Fort Worth,32.82,-97.36,34770
76107,STANDARD,Fort Worth,32.74,-97.38,24720
76108,STANDARD,Fort Worth,32.79,-97.52,37790
76109,STANDARD,Fort Worth,32.7,-97.39,17750
76110,STANDARD,Fort Worth,32.71,-97.34,28870
76111,STANDARD,Fort Worth,32.78,-97.3,21680
76112,STANDARD,Fort Worth,32.75,-97.22,37080
76113,PO BOX,Fort Worth,32.75,-97.33,216
76114,STANDARD,Fort Worth,32.77,-97.4,23490
76115,STANDARD,Fort Worth,32.68,-97.33,21430
76116,STANDARD,Fort Worth,32.72,-97.45,42910
76117,STANDARD,Haltom City,32.81,-97.27,29980
76118,STANDARD,Fort Worth,32.8,-97.19,14550
76119,STANDARD,Fort Worth,32.69,-97.26,41930
76120,STANDARD,Fort Worth,32.78,-97.18,15950
76121,PO BOX,Fort Worth,32.75,-97.33,873
76122,UNIQUE,Fort Worth,32.75,-97.33,164
76123,STANDARD,Fort Worth,32.62,-97.39,30780
76124,PO BOX,Fort Worth,32.75,-97.33,809
76126,STANDARD,Fort Worth,32.64,-97.5,21250
76127,STANDARD,Naval Air Station/ Jrb,32.77,-97.43,430
76129,UNIQUE,Fort Worth,32.71,-97.36,157
76130,UNIQUE,Fort Worth,32.75,-97.33,23
76131,STANDARD,Fort Worth,32.88,-97.35,34230
76132,STANDARD,Fort Worth,32.67,-97.42,22600
76133,STANDARD,Fort Worth,32.65,-97.38,46660
76134,STANDARD,Fort Worth,32.64,-97.34,24020
76135,STANDARD,Fort Worth,32.85,-97.48,18310
76136,PO BOX,Fort Worth,32.75,-97.33,560
76137,STANDARD,Fort Worth,32.86,-97.29,54750
76140,STANDARD,Fort Worth,32.62,-97.27,28130
76147,PO BOX,Fort Worth,32.75,-97.33,596
76148,STANDARD,Fort Worth,32.87,-97.25,22770
76150,STANDARD,Fort Worth,32.75,-97.33,0
76155,STANDARD,Fort Worth,32.82,-97.05,4100
76161,PO BOX,Fort Worth,32.75,-97.33,1213
76162,PO BOX,Fort Worth,32.75,-97.33,615
76163,PO BOX,Fort Worth,32.75,-97.33,610
76164,STANDARD,Fort Worth,32.78,-97.35,16280
76166,UNIQUE,Fort Worth,32.72,-97.31,0
76177,STANDARD,Fort Worth,32.98,-97.31,11550
76179,STANDARD,Fort Worth,32.91,-97.43,53290
76180,STANDARD,North Richland Hills,32.86,-97.21,31640
76181,PO BOX,Fort Worth,32.75,-97.33,106
76182,STANDARD,North Richland Hills,32.89,-97.21,29310
76185,PO BOX,Fort Worth,32.75,-97.33,570
76190,UNIQUE,Forth Worth,0,0,0
76191,UNIQUE,Fort Worth,32.75,-97.33,0
76192,UNIQUE,Fort Worth,32.75,-97.33,0
76193,UNIQUE,Fort Worth,32.75,-97.33,0
76195,UNIQUE,Fort Worth,32.75,-97.33,0
76196,UNIQUE,Fort Worth,32.75,-97.33,0
76197,UNIQUE,Fort Worth,32.75,-97.33,0
76198,UNIQUE,Fort Worth,32.75,-97.33,0
76199,UNIQUE,Fort Worth,32.75,-97.33,0
76201,STANDARD,Denton,33.21,-97.13,13330
76202,PO BOX,Denton,33.21,-97.13,1502
76203,PO BOX,Denton,33.21,-97.13,282
76204,PO BOX,Denton,33.21,-97.13,212
76205,STANDARD,Denton,33.19,-97.13,14700
76206,PO BOX,Denton,33.21,-97.13,741
76207,STANDARD,Denton,33.23,-97.18,11850
76208,STANDARD,Denton,33.21,-97.06,22010
76209,STANDARD,Denton,33.23,-97.11,22790
76210,STANDARD,Denton,33.14,-97.06,39090
76225,STANDARD,Alvord,33.35,-97.69,3010
76226,STANDARD,Argyle,33.11,-97.17,22740
76227,STANDARD,Aubrey,33.3,-96.98,27410
76228,STANDARD,Bellevue,33.63,-98.01,870
76230,STANDARD,Bowie,33.55,-97.84,8490
76233,STANDARD,Collinsville,33.55,-96.91,2940
76234,STANDARD,Decatur,33.23,-97.59,15120
76238,STANDARD,Era,33.48,-97.35,520
76239,STANDARD,Forestburg,33.54,-97.59,900
76240,STANDARD,Gainesville,33.63,-97.15,23680
76241,PO BOX,Gainesville,33.63,-97.15,1748
76244,STANDARD,Keller,32.93,-97.28,69900
76245,STANDARD,Gordonville,33.84,-96.88,1400
76246,PO BOX,Greenwood,33.38,-97.47,96
76247,STANDARD,Justin,33.08,-97.29,14250
76248,STANDARD,Keller,32.93,-97.22,37920
76249,STANDARD,Krum,33.26,-97.22,8530
76250,STANDARD,Lindsay,33.63,-97.21,1230
76251,STANDARD,Montague,33.67,-97.72,650
76252,STANDARD,Muenster,33.65,-97.37,2900
76253,PO BOX,Myra,33.62,-97.31,214
76255,STANDARD,Nocona,33.78,-97.73,4500
76258,STANDARD,Pilot Point,33.39,-96.95,6840
76259,STANDARD,Ponder,33.17,-97.28,4590
76261,STANDARD,Ringgold,33.8,-97.95,258
76262,STANDARD,Roanoke,33,-97.23,34490
76263,STANDARD,Rosston,33.48,-97.45,85
76264,STANDARD,Sadler,33.74,-96.84,1250
76265,STANDARD,Saint Jo,33.69,-97.52,1440
76266,STANDARD,Sanger,33.36,-97.17,13720
76267,PO BOX,Slidell,33.35,-97.39,285
76268,PO BOX,Southmayd,33.63,-96.77,367
76270,STANDARD,Sunset,33.45,-97.77,1710
76271,STANDARD,Tioga,33.47,-96.91,1470
76272,STANDARD,Valley View,33.48,-97.16,4420
76273,STANDARD,Whitesboro,33.65,-96.9,8170
76299,UNIQUE,Roanoke,32.99,-97.23,0
76301,STANDARD,Wichita Falls,33.89,-98.51,12700
76302,STANDARD,Wichita Falls,33.86,-98.49,10270
76305,STANDARD,Wichita Falls,34,-98.39,4490
76306,STANDARD,Wichita Falls,33.94,-98.52,12980
76307,PO BOX,Wichita Falls,33.89,-98.51,974
76308,STANDARD,Wichita Falls,33.85,-98.54,16590
76309,STANDARD,Wichita Falls,33.89,-98.54,11460
76310,STANDARD,Wichita Falls,33.8,-98.51,17040
76311,STANDARD,Sheppard Afb,33.97,-98.51,2630
76351,PO BOX,Archer City,33.59,-98.62,1720
76352,PO BOX,Bluegrove,33.67,-98.25,24
76354,STANDARD,Burkburnett,34.07,-98.56,10290
76357,STANDARD,Byers,34.07,-98.19,590
76360,STANDARD,Electra,34.03,-98.91,2420
76363,STANDARD,Goree,33.46,-99.52,260
76364,STANDARD,Harrold,34.08,-99.03,198
76365,STANDARD,Henrietta,33.81,-98.19,4100
76366,STANDARD,Holliday,33.81,-98.68,1960
76367,STANDARD,Iowa Park,33.95,-98.68,8470
76369,PO BOX,Kamay,33.85,-98.82,211
76370,PO BOX,Megargel,33.45,-98.92,295
76371,STANDARD,Munday,33.44,-99.62,1520
76372,STANDARD,Newcastle,33.19,-98.74,770
76373,STANDARD,Oklaunion,34.13,-99.13,166
76374,STANDARD,Olney,33.36,-98.75,3400
76377,STANDARD,Petrolia,34.01,-98.23,640
76379,STANDARD,Scotland,33.67,-98.49,450
76380,STANDARD,Seymour,33.59,-99.25,2940
76384,STANDARD,Vernon,34.14,-99.3,10310
76385,PO BOX,Vernon,34.14,-99.3,767
76388,STANDARD,Weinert,33.32,-99.67,217
76389,STANDARD,Windthorst,33.57,-98.43,1320
76401,STANDARD,Stephenville,32.21,-98.21,20610
76402,UNIQUE,Stephenville,32.22,-98.22,93
76424,STANDARD,Breckenridge,32.75,-98.91,6980
76426,STANDARD,Bridgeport,33.2,-97.75,10270
76427,STANDARD,Bryson,33.15,-98.38,670
76429,STANDARD,Caddo,32.68,-98.64,176
76430,STANDARD,Albany,32.72,-99.29,2180
76431,STANDARD,Chico,33.29,-97.79,3050
76432,STANDARD,Blanket,31.82,-98.78,1130
76433,STANDARD,Bluff Dale,32.35,-98.02,1220
76435,STANDARD,Carbon,32.26,-98.82,540
76436,STANDARD,Carlton,31.86,-98.23,180
76437,STANDARD,Cisco,32.38,-98.98,4470
76439,PO BOX,Dennis,32.61,-97.92,285
76442,STANDARD,Comanche,31.89,-98.6,6300
76443,STANDARD,Cross Plains,32.12,-99.16,1590
76444,STANDARD,De Leon,32.11,-98.53,2920
76445,STANDARD,Desdemona,32.29,-98.56,270
76446,STANDARD,Dublin,32.08,-98.33,7330
76448,STANDARD,Eastland,32.4,-98.81,4790
76449,STANDARD,Graford,32.93,-98.24,1850
76450,STANDARD,Graham,33.1,-98.57,12030
76452,PO BOX,Energy,31.75,-98.36,79
76453,STANDARD,Gordon,32.54,-98.36,940
76454,STANDARD,Gorman,32.21,-98.67,1330
76455,STANDARD,Gustine,31.84,-98.4,840
76457,STANDARD,Hico,31.98,-98.02,3070
76458,STANDARD,Jacksboro,33.22,-98.15,4710
76459,STANDARD,Jermyn,33.25,-98.39,144
76460,STANDARD,Loving,33.27,-98.48,380
76461,PO BOX,Lingleville,32.26,-98.36,208
76462,STANDARD,Lipan,32.51,-98.04,2630
76463,STANDARD,Mingus,32.53,-98.42,380
76464,STANDARD,Moran,32.54,-99.16,380
76465,PO BOX,Morgan Mill,32.4,-98.17,299
76466,PO BOX,Olden,32.42,-98.73,293
76467,PO BOX,Paluxy,32.35,-97.89,63
76468,PO BOX,Proctor,32.01,-98.42,250
76469,PO BOX,Putnam,32.36,-99.19,78
76470,STANDARD,Ranger,32.47,-98.67,2300
76471,STANDARD,Rising Star,32.09,-98.96,1210
76472,STANDARD,Santo,32.58,-98.18,1320
76474,STANDARD,Sidney,31.92,-98.77,290
76475,STANDARD,Strawn,32.67,-98.49,890
76476,STANDARD,Tolar,32.39,-97.91,2420
76481,STANDARD,South Bend,33,-98.66,166
76483,STANDARD,Throckmorton,33.18,-99.17,870
76484,STANDARD,Palo Pinto,32.76,-98.28,790
76485,PO BOX,Peaster,32.87,-97.86,325
76486,STANDARD,Perrin,33.08,-98.05,1060
76487,STANDARD,Poolville,32.97,-97.87,2150
76490,STANDARD,Whitt,32.96,-98.02,180
76491,STANDARD,Woodson,33.01,-99.05,380
76501,STANDARD,Temple,31.08,-97.25,14710
76502,STANDARD,Temple,31.1,-97.41,34030
76503,PO BOX,Temple,31.09,-97.36,1131
76504,STANDARD,Temple,31.09,-97.36,19360
76505,PO BOX,Temple,31.09,-97.36,774
76508,UNIQUE,Temple,31.08,-97.36,0
76511,STANDARD,Bartlett,30.79,-97.42,1980
76513,STANDARD,Belton,31.06,-97.46,33020
76518,STANDARD,Buckholts,30.87,-97.12,1100
76519,STANDARD,Burlington,31.02,-97.12,490
76520,STANDARD,Cameron,30.85,-96.97,6940
76522,STANDARD,Copperas Cove,31.11,-97.9,35480
76523,PO BOX,Davilla,30.79,-97.29,176
76524,STANDARD,Eddy,31.27,-97.2,2600
76525,STANDARD,Evant,31.47,-98.14,880
76526,PO BOX,Flat,31.31,-97.57,142
76527,STANDARD,Florence,30.83,-97.79,3960
76528,STANDARD,Gatesville,31.44,-97.73,13940
76530,STANDARD,Granger,30.71,-97.44,2250
76531,STANDARD,Hamilton,31.7,-98.12,3970
76533,PO BOX,Heidenheimer,31.01,-97.32,217
76534,STANDARD,Holland,30.88,-97.4,2440
76537,STANDARD,Jarrell,30.81,-97.6,6130
76538,STANDARD,Jonesboro,31.65,-97.9,660
76539,STANDARD,Kempner,31.07,-98,7710
76540,PO BOX,Killeen,31.09,-97.71,936
76541,STANDARD,Killeen,31.11,-97.73,15580
76542,STANDARD,Killeen,31.01,-97.75,43740
76543,STANDARD,Killeen,31.09,-97.71,26530
76544,STANDARD,Fort Hood,31.14,-97.76,23160
76545,UNIQUE,Killeen,31.11,-97.72,35
76546,UNIQUE,Killeen,31.11,-97.72,0
76547,PO BOX,Killeen,31.09,-97.71,900
76548,STANDARD,Harker Heights,31.06,-97.65,27060
76549,STANDARD,Killeen,31.02,-97.83,46020
76550,STANDARD,Lampasas,31.06,-98.18,10690
76554,STANDARD,Little River Academy,30.97,-97.37,2100
76556,STANDARD,Milano,30.7,-96.85,1320
76557,STANDARD,Moody,31.3,-97.36,4600
76558,PO BOX,Mound,31.31,-97.57,83
76559,STANDARD,Nolanville,31.07,-97.61,4880
76561,STANDARD,Oglesby,31.41,-97.5,900
76564,PO BOX,Pendleton,31.12,-97.23,202
76565,STANDARD,Pottsville,31.64,-98.35,90
76566,STANDARD,Purmela,31.55,-98.05,270
76567,STANDARD,Rockdale,30.65,-97,7720
76569,STANDARD,Rogers,30.93,-97.22,2510
76570,STANDARD,Rosebud,31.07,-96.97,2080
76571,STANDARD,Salado,30.95,-97.52,7270
76573,PO BOX,Schwertner,30.82,-97.5,86
76574,STANDARD,Taylor,30.57,-97.41,16750
76577,STANDARD,Thorndale,30.61,-97.2,2800
76578,STANDARD,Thrall,30.58,-97.29,1640
76579,STANDARD,Troy,31.19,-97.3,4610
76596,UNIQUE,Gatesville,31.48,-97.73,14
76597,UNIQUE,Gatesville,31.49,-97.71,20
76598,UNIQUE,Gatesville,31.48,-97.74,47
76599,UNIQUE,Gatesville,31.47,-97.74,0
76621,STANDARD,Abbott,31.88,-97.07,1040
76622,STANDARD,Aquilla,31.85,-97.22,910
76623,PO BOX,Avalon,32.21,-96.75,430
76624,STANDARD,Axtell,31.65,-96.97,2130
76626,STANDARD,Blooming Grove,32.09,-96.71,1480
76627,STANDARD,Blum,32.14,-97.39,1420
76628,PO BOX,Brandon,32.03,-96.95,107
76629,STANDARD,Bremond,31.16,-96.67,1720
76630,STANDARD,Bruceville,31.33,-97.21,1550
76631,STANDARD,Bynum,31.96,-97,430
76632,STANDARD,Chilton,31.3,-97.06,1520
76633,STANDARD,China Spring,31.67,-97.31,4970
76634,STANDARD,Clifton,31.78,-97.58,5870
76635,STANDARD,Coolidge,31.75,-96.65,1180
76636,STANDARD,Covington,32.17,-97.25,1380
76637,STANDARD,Cranfills Gap,31.77,-97.82,430
76638,STANDARD,Crawford,31.53,-97.44,2760
76639,STANDARD,Dawson,31.89,-96.71,1190
76640,STANDARD,Elm Mott,31.67,-97.1,2630
76641,STANDARD,Frost,32.07,-96.8,1500
76642,STANDARD,Groesbeck,31.52,-96.53,5450
76643,STANDARD,Hewitt,31.45,-97.19,13750
76644,PO BOX,Laguna Park,31.78,-97.58,309
76645,STANDARD,Hillsboro,32,-97.11,10010
76648,STANDARD,Hubbard,31.84,-96.8,2060
76649,STANDARD,Iredell,31.98,-97.87,610
76650,PO BOX,Irene,31.99,-96.85,84
76651,STANDARD,Italy,32.18,-96.88,2760
76652,STANDARD,Kopperl,32.11,-97.58,870
76653,STANDARD,Kosse,31.3,-96.62,950
76654,PO BOX,Leroy,31.73,-97.02,217
76655,STANDARD,Lorena,31.38,-97.21,7820
76656,STANDARD,Lott,31.2,-97.03,1990
76657,STANDARD,Mc Gregor,31.45,-97.37,9490
76660,STANDARD,Malone,31.91,-96.89,390
76661,STANDARD,Marlin,31.3,-96.89,5380
76664,STANDARD,Mart,31.54,-96.83,2660
76665,STANDARD,Meridian,31.92,-97.64,2110
76666,STANDARD,Mertens,32.05,-96.89,230
76667,STANDARD,Mexia,31.67,-96.48,10120
76670,STANDARD,Milford,32.12,-96.94,1210
76671,STANDARD,Morgan,32.01,-97.6,1340
76673,STANDARD,Mount Calm,31.75,-96.88,980
76676,STANDARD,Penelope,31.86,-96.95,320
76678,STANDARD,Prairie Hill,31.65,-96.78,184
76679,STANDARD,Purdon,31.94,-96.57,1200
76680,STANDARD,Reagan,31.2,-96.81,205
76681,STANDARD,Richland,31.92,-96.42,410
76682,STANDARD,Riesel,31.47,-96.93,2540
76684,PO BOX,Ross,31.72,-97.11,259
76685,PO BOX,Satin,31.38,-97.02,93
76686,PO BOX,Tehuacana,31.74,-96.54,293
76687,STANDARD,Thornton,31.41,-96.57,1220
76689,STANDARD,Valley Mills,31.65,-97.47,3480
76690,STANDARD,Walnut Springs,32.05,-97.75,1060
76691,STANDARD,West,31.8,-97.09,5730
76692,STANDARD,Whitney,31.94,-97.32,8130
76693,STANDARD,Wortham,31.79,-96.46,1560
76701,STANDARD,Waco,31.55,-97.14,1130
76702,PO BOX,Waco,31.56,-97.18,896
76703,PO BOX,Waco,31.56,-97.18,832
76704,STANDARD,Waco,31.58,-97.13,5650
76705,STANDARD,Waco,31.62,-97.1,24810
76706,STANDARD,Waco,31.48,-97.08,24210
76707,STANDARD,Waco,31.55,-97.16,14750
76708,STANDARD,Waco,31.56,-97.18,23700
76710,STANDARD,Waco,31.54,-97.2,20770
76711,STANDARD,Waco,31.51,-97.15,8240
76712,STANDARD,Woodway,31.49,-97.23,23420
76714,PO BOX,Waco,31.56,-97.18,692
76715,PO BOX,Waco,31.56,-97.18,785
76716,PO BOX,Waco,31.56,-97.18,31
76795,UNIQUE,Waco,31.47,-97.24,0
76797,UNIQUE,Waco,31.56,-97.18,0
76798,STANDARD,Waco,31.55,-97.12,94
76799,UNIQUE,Waco,31.56,-97.18,0
76801,STANDARD,Brownwood,31.72,-98.97,19880
76802,STANDARD,Early,31.74,-98.94,4260
76803,PO BOX,Brownwood,31.72,-98.97,370
76804,PO BOX,Brownwood,31.72,-98.97,1344
76820,STANDARD,Art,30.74,-99.1,99
76821,STANDARD,Ballinger,31.74,-99.95,4310
76823,STANDARD,Bangs,31.71,-99.13,2500
76824,PO BOX,Bend,30.94,-98.47,60
76825,STANDARD,Brady,31.13,-99.37,6300
76827,STANDARD,Brookesmith,31.55,-99.11,350
76828,STANDARD,Burkett,31.99,-99.22,154
76831,STANDARD,Castell,30.65,-98.92,76
76832,STANDARD,Cherokee,30.98,-98.7,500
76834,STANDARD,Coleman,31.83,-99.42,4500
76836,STANDARD,Doole,31.44,-99.55,45
76837,STANDARD,Eden,31.21,-99.84,1120
76841,STANDARD,Fort Mc Kavett,30.9,-100.11,107
76842,STANDARD,Fredonia,30.93,-99.11,146
76844,STANDARD,Goldthwaite,31.45,-98.57,2990
76845,STANDARD,Gouldbusk,31.55,-99.47,130
76848,STANDARD,Hext,30.86,-99.52,61
76849,STANDARD,Junction,30.48,-99.77,3160
76852,STANDARD,Lohn,31.32,-99.4,200
76853,STANDARD,Lometa,31.21,-98.39,1290
76854,STANDARD,London,30.67,-99.57,250
76855,PO BOX,Lowake,31.56,-100.07,19
76856,STANDARD,Mason,30.74,-99.23,3120
76857,STANDARD,May,31.97,-98.91,1320
76858,STANDARD,Melvin,31.19,-99.58,230
76859,STANDARD,Menard,30.91,-99.78,1560
76861,STANDARD,Miles,31.6,-100.18,2000
76862,STANDARD,Millersview,31.4,-99.75,137
76864,STANDARD,Mullin,31.55,-98.66,590
76865,STANDARD,Norton,31.87,-100.12,122
76866,STANDARD,Paint Rock,31.5,-99.92,450
76869,STANDARD,Pontotoc,30.9,-98.97,134
76870,STANDARD,Priddy,31.63,-98.55,257
76871,STANDARD,Richland Springs,31.27,-98.94,610
76872,STANDARD,Rochelle,31.22,-99.21,540
76873,STANDARD,Rockwood,31.5,-99.37,38
76874,STANDARD,Roosevelt,30.49,-100.05,64
76875,STANDARD,Rowena,31.64,-100.04,540
76877,STANDARD,San Saba,31.19,-98.72,3580
76878,STANDARD,Santa Anna,31.73,-99.32,1270
76880,PO BOX,Star,31.47,-98.41,84
76882,STANDARD,Talpa,31.77,-99.7,210
76883,STANDARD,Telegraph,30.33,-99.98,18
76884,STANDARD,Valera,31.75,-99.54,167
76885,STANDARD,Valley Spring,30.86,-98.86,152
76886,PO BOX,Veribest,31.47,-100.25,163
76887,STANDARD,Voca,31.01,-99.18,97
76888,STANDARD,Voss,31.62,-99.56,83
76890,STANDARD,Zephyr,31.67,-98.79,790
76901,STANDARD,San Angelo,31.61,-100.55,25890
76902,PO BOX,San Angelo,31.44,-100.45,1940
76903,STANDARD,San Angelo,31.44,-100.45,27710
76904,STANDARD,San Angelo,31.28,-100.41,29190
76905,STANDARD,San Angelo,31.51,-100.32,11220
76906,PO BOX,San Angelo,31.44,-100.45,1100
76908,STANDARD,Goodfellow Afb,31.43,-100.4,795
76909,UNIQUE,San Angelo,31.44,-100.45,110
76930,STANDARD,Barnhart,31.12,-101.17,133
76932,STANDARD,Big Lake,31.19,-101.45,3790
76933,STANDARD,Bronte,31.88,-100.29,1180
76934,STANDARD,Carlsbad,31.6,-100.67,890
76935,STANDARD,Christoval,31.19,-100.49,1630
76936,STANDARD,Eldorado,30.86,-100.59,2620
76937,STANDARD,Eola,31.39,-100.15,250
76939,PO BOX,Knickerbocker,31.26,-100.62,163
76940,STANDARD,Mereta,31.45,-100.14,220
76941,STANDARD,Mertzon,31.26,-100.82,1250
76943,STANDARD,Ozona,30.7,-101.2,3640
76945,STANDARD,Robert Lee,31.89,-100.48,1500
76949,STANDARD,Silver,32.07,-100.68,0
76950,STANDARD,Sonora,30.57,-100.64,3880
76951,STANDARD,Sterling City,31.83,-100.98,1230
76953,PO BOX,Tennyson,31.74,-100.28,64
76955,STANDARD,Vancourt,31.34,-100.17,132
76957,STANDARD,Wall,31.37,-100.31,400
76958,PO BOX,Water Valley,31.66,-100.71,333
77001,PO BOX,Houston,29.76,-95.38,575
77002,STANDARD,Houston,29.76,-95.37,5640
77003,STANDARD,Houston,29.75,-95.35,8600
77004,STANDARD,Houston,29.72,-95.36,21380
77005,STANDARD,Houston,29.72,-95.42,22810
77006,STANDARD,Houston,29.74,-95.39,17210
77007,STANDARD,Houston,29.77,-95.41,31170
77008,STANDARD,Houston,29.8,-95.42,28410
77009,STANDARD,Houston,29.8,-95.37,33280
77010,STANDARD,Houston,29.75,-95.36,700
77011,STANDARD,Houston,29.74,-95.31,16490
77012,STANDARD,Houston,29.72,-95.27,18120
77013,STANDARD,Houston,29.79,-95.23,16310
77014,STANDARD,Houston,29.98,-95.46,29620
77015,STANDARD,Houston,29.76,-95.17,54530
77016,STANDARD,Houston,29.86,-95.3,26240
77017,STANDARD,Houston,29.69,-95.25,30480
77018,STANDARD,Houston,29.83,-95.43,24290
77019,STANDARD,Houston,29.76,-95.38,18690
77020,STANDARD,Houston,29.77,-95.31,23400
77021,STANDARD,Houston,29.7,-95.36,22860
77022,STANDARD,Houston,29.83,-95.38,25480
77023,STANDARD,Houston,29.72,-95.32,25060
77024,STANDARD,Houston,29.77,-95.51,34580
77025,STANDARD,Houston,29.69,-95.43,23050
77026,STANDARD,Houston,29.8,-95.33,20540
77027,STANDARD,Houston,29.74,-95.45,12670
77028,STANDARD,Houston,29.83,-95.29,15980
77029,STANDARD,Houston,29.76,-95.26,17230
77030,STANDARD,Houston,29.71,-95.4,9170
77031,STANDARD,Houston,29.65,-95.55,14470
77032,STANDARD,Houston,29.99,-95.35,13150
77033,STANDARD,Houston,29.67,-95.34,26020
77034,STANDARD,Houston,29.62,-95.19,35550
77035,STANDARD,Houston,29.65,-95.48,32420
77036,STANDARD,Houston,29.7,-95.53,60090
77037,STANDARD,Houston,29.89,-95.39,19360
77038,STANDARD,Houston,29.92,-95.44,27710
77039,STANDARD,Houston,29.91,-95.34,27630
77040,STANDARD,Houston,29.87,-95.53,47220
77041,STANDARD,Houston,29.86,-95.58,36620
77042,STANDARD,Houston,29.74,-95.56,36850
77043,STANDARD,Houston,29.81,-95.58,26080
77044,STANDARD,Houston,29.91,-95.18,39180
77045,STANDARD,Houston,29.64,-95.43,30820
77046,STANDARD,Houston,29.73,-95.43,1620
77047,STANDARD,Houston,29.61,-95.39,25690
77048,STANDARD,Houston,29.62,-95.32,14740
77049,STANDARD,Houston,29.83,-95.15,32110
77050,STANDARD,Houston,29.9,-95.27,4580
77051,STANDARD,Houston,29.66,-95.38,13460
77052,PO BOX,Houston,29.76,-95.38,498
77053,STANDARD,Houston,29.58,-95.46,29290
77054,STANDARD,Houston,29.68,-95.4,15820
77055,STANDARD,Houston,29.8,-95.49,38960
77056,STANDARD,Houston,29.75,-95.47,18590
77057,STANDARD,Houston,29.74,-95.49,33850
77058,STANDARD,Houston,29.56,-95.1,15130
77059,STANDARD,Houston,29.61,-95.12,17080
77060,STANDARD,Houston,29.93,-95.39,38160
77061,STANDARD,Houston,29.65,-95.28,21690
77062,STANDARD,Houston,29.57,-95.13,24610
77063,STANDARD,Houston,29.74,-95.52,29910
77064,STANDARD,Houston,29.92,-95.54,46510
77065,STANDARD,Houston,29.93,-95.6,34420
77066,STANDARD,Houston,29.96,-95.5,32040
77067,STANDARD,Houston,29.95,-95.45,29290
77068,STANDARD,Houston,30.01,-95.49,10380
77069,STANDARD,Houston,29.99,-95.53,16400
77070,STANDARD,Houston,29.98,-95.57,46570
77071,STANDARD,Houston,29.65,-95.52,25090
77072,STANDARD,Houston,29.7,-95.58,54080
77073,STANDARD,Houston,30,-95.4,40070
77074,STANDARD,Houston,29.69,-95.52,34410
77075,STANDARD,Houston,29.62,-95.27,37890
77076,STANDARD,Houston,29.86,-95.38,31000
77077,STANDARD,Houston,29.75,-95.62,50560
77078,STANDARD,Houston,29.85,-95.25,14200
77079,STANDARD,Houston,29.78,-95.6,31040
77080,STANDARD,Houston,29.82,-95.52,42070
77081,STANDARD,Houston,29.71,-95.48,40600
77082,STANDARD,Houston,29.72,-95.64,48850
77083,STANDARD,Houston,29.69,-95.65,69940
77084,STANDARD,Houston,29.83,-95.66,98370
77085,STANDARD,Houston,29.62,-95.49,16620
77086,STANDARD,Houston,29.92,-95.49,27820
77087,STANDARD,Houston,29.69,-95.3,34990
77088,STANDARD,Houston,29.88,-95.45,51360
77089,STANDARD,Houston,29.59,-95.23,49140
77090,STANDARD,Houston,30.01,-95.44,34430
77091,STANDARD,Houston,29.85,-95.44,23120
77092,STANDARD,Houston,29.83,-95.47,32110
77093,STANDARD,Houston,29.86,-95.34,44680
77094,STANDARD,Houston,29.77,-95.68,9700
77095,STANDARD,Houston,29.91,-95.65,67360
77096,STANDARD,Houston,29.68,-95.48,31200
77097,STANDARD,Houston,29.76,-95.36,0
77098,STANDARD,Houston,29.73,-95.42,12110
77099,STANDARD,Houston,29.67,-95.59,44630
77201,STANDARD,Houston,29.77,-95.36,0
77202,PO BOX,Houston,29.76,-95.38,0
77203,PO BOX,Houston,29.76,-95.38,0
77204,UNIQUE,Houston,29.76,-95.38,22
77205,PO BOX,Houston,29.76,-95.38,623
77206,PO BOX,Houston,29.76,-95.38,263
77207,PO BOX,Houston,29.76,-95.38,891
77208,PO BOX,Houston,29.76,-95.38,199
77209,UNIQUE,Houston,29.76,-95.38,0
77210,PO BOX,Houston,29.76,-95.38,5322
77212,UNIQUE,Houston,29.76,-95.38,0
77213,PO BOX,Houston,29.76,-95.38,616
77215,PO BOX,Houston,29.76,-95.38,666
77216,UNIQUE,Houston,29.76,-95.38,0
77217,PO BOX,Houston,29.76,-95.38,255
77218,PO BOX,Houston,29.76,-95.38,355
77219,PO BOX,Houston,29.76,-95.38,708
77220,PO BOX,Houston,29.76,-95.38,407
77221,PO BOX,Houston,29.76,-95.38,449
77222,PO BOX,Houston,29.76,-95.38,414
77223,PO BOX,Houston,29.76,-95.38,636
77224,PO BOX,Houston,29.76,-95.38,322
77225,PO BOX,Houston,29.76,-95.38,355
77226,PO BOX,Houston,29.76,-95.38,264
77227,PO BOX,Houston,29.76,-95.38,1169
77228,PO BOX,Houston,29.76,-95.38,527
77229,PO BOX,Houston,29.76,-95.38,368
77230,PO BOX,Houston,29.76,-95.38,490
77231,PO BOX,Houston,29.76,-95.38,821
77233,PO BOX,Houston,29.76,-95.38,543
77234,PO BOX,Houston,29.76,-95.38,540
77235,PO BOX,Houston,29.76,-95.38,368
77236,PO BOX,Houston,29.76,-95.38,485
77237,PO BOX,Houston,29.76,-95.38,154
77238,PO BOX,Houston,29.76,-95.38,603
77240,PO BOX,Houston,29.76,-95.38,284
77241,PO BOX,Houston,29.76,-95.38,214
77242,PO BOX,Houston,29.76,-95.38,1204
77243,PO BOX,Houston,29.76,-95.38,389
77244,PO BOX,Houston,29.76,-95.38,418
77245,PO BOX,Houston,29.76,-95.38,900
77246,PO BOX,Houston,29.64,-95.43,0
77247,PO BOX,Houston,29.64,-95.43,0
77248,PO BOX,Houston,29.76,-95.38,274
77249,PO BOX,Houston,29.76,-95.38,526
77250,PO BOX,Houston,29.7,-95.53,0
77251,PO BOX,Houston,29.76,-95.38,556
77252,PO BOX,Houston,29.76,-95.38,334
77253,PO BOX,Houston,29.76,-95.38,279
77254,PO BOX,Houston,29.76,-95.38,428
77255,PO BOX,Houston,29.76,-95.38,664
77256,PO BOX,Houston,29.76,-95.38,262
77257,PO BOX,Houston,29.76,-95.38,830
77258,PO BOX,Houston,29.76,-95.38,435
77259,PO BOX,Houston,29.76,-95.38,415
77260,PO BOX,Houston,29.67,-95.24,0
77261,PO BOX,Houston,29.76,-95.38,379
77262,PO BOX,Houston,29.76,-95.38,224
77263,PO BOX,Houston,29.76,-95.38,541
77265,PO BOX,Houston,29.76,-95.38,258
77266,PO BOX,Houston,29.76,-95.38,562
77267,PO BOX,Houston,29.76,-95.38,1111
77268,PO BOX,Houston,29.76,-95.38,754
77269,PO BOX,Houston,29.76,-95.38,773
77270,PO BOX,Houston,29.76,-95.38,653
77271,PO BOX,Houston,29.76,-95.38,613
77272,PO BOX,Houston,29.76,-95.38,1080
77273,PO BOX,Houston,29.76,-95.38,207
77274,PO BOX,Houston,29.76,-95.38,1024
77275,PO BOX,Houston,29.76,-95.38,534
77276,PO BOX,Houston,29.75,-95.36,0
77277,PO BOX,Houston,29.76,-95.38,553
77278,PO BOX,Houston,29.76,-95.51,0
77279,PO BOX,Houston,29.76,-95.38,231
77280,PO BOX,Houston,29.76,-95.38,407
77282,PO BOX,Houston,29.76,-95.38,500
77284,PO BOX,Houston,29.76,-95.38,867
77285,PO BOX,Houston,29.75,-95.36,0
77286,PO BOX,Houston,29.67,-95.36,0
77287,PO BOX,Houston,29.76,-95.38,353
77288,PO BOX,Houston,29.76,-95.38,386
77289,PO BOX,Houston,29.76,-95.38,348
77290,PO BOX,Houston,29.76,-95.38,407
77291,PO BOX,Houston,29.76,-95.38,339
77292,PO BOX,Houston,29.76,-95.38,806
77293,PO BOX,Houston,29.76,-95.38,874
77294,PO BOX,Houston,29.86,-95.24,0
77296,PO BOX,Houston,29.76,-95.36,0
77297,UNIQUE,Houston,29.76,-95.38,0
77298,UNIQUE,Houston,29.76,-95.36,0
77299,UNIQUE,Houston,29.76,-95.38,0
77301,STANDARD,Conroe,30.32,-95.47,28010
77302,STANDARD,Conroe,30.22,-95.34,17170
77303,STANDARD,Conroe,30.38,-95.38,16330
77304,STANDARD,Conroe,30.32,-95.51,23800
77305,PO BOX,Conroe,30.32,-95.47,2438
77306,STANDARD,Conroe,30.29,-95.31,11130
77315,STANDARD,North Houston,29.95,-95.34,0
77316,STANDARD,Montgomery,30.31,-95.69,20610
77318,STANDARD,Willis,30.44,-95.53,13890
77320,STANDARD,Huntsville,30.8,-95.55,18970
77325,PO BOX,Kingwood,29.99,-95.26,783
77326,PO BOX,Ace,30.5,-94.82,374
77327,STANDARD,Cleveland,30.34,-95.07,17260
77328,STANDARD,Cleveland,30.39,-95.19,14430
77331,STANDARD,Coldspring,30.59,-95.12,5340
77332,PO BOX,Dallardsville,30.65,-94.6,119
77333,PO BOX,Dobbin,30.39,-95.68,473
77334,PO BOX,Dodge,30.78,-95.37,561
77335,STANDARD,Goodrich,30.6,-94.94,1750
77336,STANDARD,Huffman,30.06,-95.09,12900
77337,PO BOX,Hufsmith,30.12,-95.59,0
77338,STANDARD,Humble,29.99,-95.26,36030
77339,STANDARD,Kingwood,30.05,-95.22,37700
77340,STANDARD,Huntsville,30.71,-95.54,18260
77341,UNIQUE,Huntsville,30.71,-95.54,97
77342,PO BOX,Huntsville,30.74,-95.56,2755
77343,UNIQUE,Huntsville,30.71,-95.54,12
77344,UNIQUE,Huntsville,30.71,-95.54,0
77345,STANDARD,Kingwood,30.05,-95.16,27390
77346,STANDARD,Humble,29.99,-95.18,58670
77347,PO BOX,Humble,29.99,-95.26,1578
77348,UNIQUE,Huntsville,30.71,-95.54,13
77349,UNIQUE,Huntsville,30.71,-95.54,12
77350,PO BOX,Leggett,30.82,-94.83,542
77351,STANDARD,Livingston,30.7,-94.93,23230
77353,PO BOX,Magnolia,30.21,-95.74,1182
77354,STANDARD,Magnolia,30.21,-95.74,33710
77355,STANDARD,Magnolia,30.16,-95.75,24670
77356,STANDARD,Montgomery,30.39,-95.69,26630
77357,STANDARD,New Caney,30.15,-95.18,21970
77358,STANDARD,New Waverly,30.53,-95.48,4500
77359,STANDARD,Oakhurst,30.74,-95.3,640
77360,STANDARD,Onalaska,30.8,-95.1,4210
77362,STANDARD,Pinehurst,30.16,-95.67,5050
77363,STANDARD,Plantersville,30.3,-95.84,3020
77364,STANDARD,Pointblank,30.76,-95.25,1840
77365,STANDARD,Porter,30.1,-95.29,32230
77367,PO BOX,Riverside,30.86,-95.4,889
77368,PO BOX,Romayor,30.44,-94.82,372
77369,PO BOX,Rye,30.42,-94.74,1053
77371,STANDARD,Shepherd,30.49,-95,6420
77372,STANDARD,Splendora,30.23,-95.16,10890
77373,STANDARD,Spring,30.06,-95.38,54820
77374,PO BOX,Thicket,30.39,-94.63,421
77375,STANDARD,Tomball,30.09,-95.61,46140
77376,PO BOX,Votaw,30.44,-94.66,296
77377,STANDARD,Tomball,30.06,-95.68,35110
77378,STANDARD,Willis,30.42,-95.47,15780
77379,STANDARD,Spring,30.04,-95.53,74610
77380,STANDARD,Spring,30.14,-95.47,22880
77381,STANDARD,Spring,30.18,-95.5,33340
77382,STANDARD,Spring,30.19,-95.55,35550
77383,PO BOX,Spring,30.06,-95.38,1302
77384,STANDARD,Conroe,30.23,-95.5,14770
77385,STANDARD,Conroe,30.19,-95.42,21810
77386,STANDARD,Spring,30.1,-95.36,47760
77387,PO BOX,Spring,30.06,-95.38,1164
77388,STANDARD,Spring,30.06,-95.47,43430
77389,STANDARD,Spring,30.12,-95.52,29820
77391,PO BOX,Spring,30.06,-95.38,494
77393,PO BOX,Spring,30.06,-95.38,609
77396,STANDARD,Humble,29.94,-95.26,47000
77399,UNIQUE,Livingston,30.7,-94.93,12956
77401,STANDARD,Bellaire,29.7,-95.46,17330
77402,PO BOX,Bellaire,29.7,-95.46,1570
77404,PO BOX,Bay City,28.97,-95.96,1811
77406,STANDARD,Richmond,29.65,-95.79,38880
77407,STANDARD,Richmond,29.68,-95.7,43970
77410,PO BOX,Cypress,29.96,-95.69,1063
77411,PO BOX,Alief,29.7,-95.58,1018
77412,PO BOX,Altair,29.55,-96.41,233
77413,PO BOX,Barker,29.83,-95.77,224
77414,STANDARD,Bay City,28.97,-95.96,19260
77415,PO BOX,Cedar Lane,28.93,-95.73,372
77417,STANDARD,Beasley,29.49,-95.91,1840
77418,STANDARD,Bellville,29.94,-96.25,8810
77419,PO BOX,Blessing,28.83,-96.23,1375
77420,STANDARD,Boling,29.23,-95.98,2230
77422,STANDARD,Brazoria,29.04,-95.56,11720
77423,STANDARD,Brookshire,29.78,-95.95,10880
77426,STANDARD,Chappell Hill,30.12,-96.26,1880
77428,PO BOX,Collegeport,28.68,-96.16,58
77429,STANDARD,Cypress,30,-95.67,79190
77430,STANDARD,Damon,29.27,-95.72,2070
77431,PO BOX,Danciger,29.19,-95.72,42
77432,STANDARD,Danevang,29.08,-96.17,455
77433,STANDARD,Cypress,29.96,-95.69,75130
77434,STANDARD,Eagle Lake,29.58,-96.32,4360
77435,STANDARD,East Bernard,29.52,-96.06,4860
77436,PO BOX,Egypt,29.42,-96.23,187
77437,STANDARD,El Campo,29.19,-96.27,16610
77440,PO BOX,Elmaton,28.89,-96.15,141
77441,STANDARD,Fulshear,29.67,-95.92,13190
77442,STANDARD,Garwood,29.45,-96.51,860
77443,PO BOX,Glen Flora,29.35,-96.19,277
77444,STANDARD,Guy,29.33,-95.76,770
77445,STANDARD,Hempstead,30.09,-96.08,11320
77446,PO BOX,Prairie View,30.08,-95.98,1267
77447,STANDARD,Hockley,30.04,-95.81,13910
77448,STANDARD,Hungerford,29.42,-96.09,757
77449,STANDARD,Katy,29.84,-95.73,105950
77450,STANDARD,Katy,29.75,-95.74,68110
77451,PO BOX,Kendleton,29.44,-96,449
77452,PO BOX,Kenney,30.04,-96.29,222
77453,PO BOX,Lane City,29.19,-95.99,400
77454,PO BOX,Lissie,29.52,-96.22,228
77455,STANDARD,Louise,29.18,-96.42,1790
77456,PO BOX,Markham,28.96,-96.06,1236
77457,PO BOX,Matagorda,28.73,-95.88,457
77458,PO BOX,Midfield,28.94,-96.25,353
77459,STANDARD,Missouri City,29.57,-95.53,65570
77460,PO BOX,Nada,29.4,-96.38,278
77461,STANDARD,Needville,29.39,-95.83,10250
77463,PO BOX,Old Ocean,29.19,-95.72,330
77464,PO BOX,Orchard,29.6,-95.96,641
77465,STANDARD,Palacios,28.71,-96.23,6650
77466,PO BOX,Pattison,29.79,-96.01,893
77467,PO BOX,Pierce,29.22,-96.18,108
77468,STANDARD,Pledger,29.13,-95.94,200
77469,STANDARD,Richmond,29.58,-95.76,41140
77470,STANDARD,Rock Island,29.54,-96.55,301
77471,STANDARD,Rosenberg,29.54,-95.79,36130
77473,PO BOX,San Felipe,29.8,-96.11,490
77474,STANDARD,Sealy,29.77,-96.15,13140
77475,PO BOX,Sheridan,29.51,-96.69,765
77476,PO BOX,Simonton,29.69,-95.95,1080
77477,STANDARD,Stafford,29.62,-95.56,31440
77478,STANDARD,Sugar Land,29.61,-95.61,24220
77479,STANDARD,Sugar Land,29.57,-95.64,83380
77480,STANDARD,Sweeny,29.04,-95.69,6960
77481,PO BOX,Thompsons,29.47,-95.56,232
77482,STANDARD,Van Vleck,29.03,-95.88,2210
77483,STANDARD,Wadsworth,28.83,-95.93,424
77484,STANDARD,Waller,30.05,-95.92,11260
77485,STANDARD,Wallis,29.63,-96.06,2960
77486,STANDARD,West Columbia,29.14,-95.64,6600
77487,PO BOX,Sugar Land,29.61,-95.61,925
77488,STANDARD,Wharton,29.31,-96.09,12150
77489,STANDARD,Missouri City,29.6,-95.52,35260
77491,PO BOX,Katy,29.79,-95.82,753
77492,PO BOX,Katy,29.79,-95.82,838
77493,STANDARD,Katy,29.79,-95.82,27640
77494,STANDARD,Katy,29.74,-95.83,98080
77496,PO BOX,Sugar Land,29.61,-95.61,593
77497,PO BOX,Stafford,29.62,-95.56,1056
77498,STANDARD,Sugar Land,29.63,-95.65,47070
77501,PO BOX,Pasadena,29.66,-95.15,875
77502,STANDARD,Pasadena,29.68,-95.2,36510
77503,STANDARD,Pasadena,29.7,-95.16,23110
77504,STANDARD,Pasadena,29.65,-95.19,20820
77505,STANDARD,Pasadena,29.66,-95.15,21470
77506,STANDARD,Pasadena,29.71,-95.2,34010
77507,STANDARD,Pasadena,29.62,-95.06,217
77508,PO BOX,Pasadena,29.66,-95.15,968
77510,STANDARD,Santa Fe,29.38,-95.09,13230
77511,STANDARD,Alvin,29.43,-95.24,43270
77512,PO BOX,Alvin,29.43,-95.24,2663
77514,STANDARD,Anahuac,29.76,-94.67,4690
77515,STANDARD,Angleton,29.16,-95.42,25450
77516,PO BOX,Angleton,29.16,-95.42,2547
77517,STANDARD,Santa Fe,29.36,-95.13,5470
77518,STANDARD,Bacliff,29.5,-94.99,8800
77519,STANDARD,Batson,30.24,-94.6,980
77520,STANDARD,Baytown,29.74,-94.96,36790
77521,STANDARD,Baytown,29.8,-94.97,52730
77522,PO BOX,Baytown,29.74,-94.96,3001
77523,STANDARD,Baytown,29.76,-94.87,20410
77530,STANDARD,Channelview,29.78,-95.11,32090
77531,STANDARD,Clute,29.02,-95.39,14410
77532,STANDARD,Crosby,29.91,-95.05,27120
77533,PO BOX,Daisetta,30.11,-94.64,972
77534,STANDARD,Danbury,29.22,-95.34,2970
77535,STANDARD,Dayton,30.05,-94.89,27420
77536,STANDARD,Deer Park,29.69,-95.11,31920
77538,STANDARD,Devers,30.02,-94.58,840
77539,STANDARD,Dickinson,29.45,-95.06,38890
77541,STANDARD,Freeport,28.95,-95.36,15090
77542,PO BOX,Freeport,28.95,-95.36,694
77545,STANDARD,Fresno,29.53,-95.45,21870
77546,STANDARD,Friendswood,29.51,-95.19,49430
77547,STANDARD,Galena Park,29.74,-95.23,9640
77549,PO BOX,Friendswood,29.51,-95.19,1058
77550,STANDARD,Galveston,29.3,-94.79,17910
77551,STANDARD,Galveston,29.28,-94.83,16880
77552,PO BOX,Galveston,29.3,-94.79,816
77553,PO BOX,Galveston,29.3,-94.79,1043
77554,STANDARD,Galveston,29.25,-94.92,6330
77555,UNIQUE,Galveston,29.3,-94.79,173
77560,STANDARD,Hankamer,29.87,-94.57,960
77561,PO BOX,Hardin,30.17,-94.74,1780
77562,STANDARD,Highlands,29.81,-95.05,10230
77563,STANDARD,Hitchcock,29.31,-95.01,8560
77564,STANDARD,Hull,30.19,-94.67,1410
77565,STANDARD,Kemah,29.54,-95.03,6710
77566,STANDARD,Lake Jackson,29.04,-95.44,28660
77568,STANDARD,La Marque,29.36,-94.99,13850
77571,STANDARD,La Porte,29.66,-95.04,34190
77572,PO BOX,La Porte,29.66,-95.04,1063
77573,STANDARD,League City,29.48,-95.1,78580
77574,PO BOX,League City,29.48,-95.1,1271
77575,STANDARD,Liberty,30.04,-94.79,13040
77577,STANDARD,Liverpool,29.29,-95.27,1160
77578,STANDARD,Manvel,29.48,-95.35,16600
77580,PO BOX,Mont Belvieu,29.87,-94.87,2626
77581,STANDARD,Pearland,29.55,-95.27,43350
77582,PO BOX,Raywood,29.99,-94.74,677
77583,STANDARD,Rosharon,29.37,-95.45,23230
77584,STANDARD,Pearland,29.55,-95.35,77330
77585,STANDARD,Saratoga,30.28,-94.52,780
77586,STANDARD,Seabrook,29.56,-95.02,21420
77587,STANDARD,South Houston,29.66,-95.22,15890
77588,PO BOX,Pearland,29.55,-95.27,1414
77590,STANDARD,Texas City,29.4,-94.95,25890
77591,STANDARD,Texas City,29.4,-95,12600
77592,PO BOX,Texas City,29.4,-94.95,1597
77597,STANDARD,Wallisville,29.86,-94.69,670
77598,STANDARD,Webster,29.53,-95.11,20100
77611,STANDARD,Bridge City,30.02,-93.85,8980
77612,STANDARD,Buna,30.44,-93.96,7720
77613,PO BOX,China,30.05,-94.33,1513
77614,PO BOX,Deweyville,30.3,-93.77,1360
77615,PO BOX,Evadale,30.33,-94.06,1400
77616,STANDARD,Fred,30.57,-94.17,1090
77617,PO BOX,Gilchrist,29.51,-94.52,296
77619,STANDARD,Groves,29.94,-93.91,15400
77622,STANDARD,Hamshire,29.86,-94.31,1540
77623,STANDARD,High Island,29.56,-94.38,335
77624,STANDARD,Hillister,30.66,-94.38,770
77625,STANDARD,Kountze,30.37,-94.31,7690
77626,PO BOX,Mauriceville,30.21,-93.87,1664
77627,STANDARD,Nederland,29.97,-93.99,21130
77629,PO BOX,Nome,30.03,-94.41,726
77630,STANDARD,Orange,30.1,-93.75,23470
77631,PO BOX,Orange,30.1,-93.75,927
77632,STANDARD,Orange,30.2,-93.8,19320
77639,PO BOX,Orangefield,30.03,-93.89,716
77640,STANDARD,Port Arthur,29.89,-93.92,13840
77641,PO BOX,Port Arthur,29.89,-93.92,642
77642,STANDARD,Port Arthur,29.96,-93.89,35690
77643,PO BOX,Port Arthur,29.89,-93.92,333
77650,PO BOX,Port Bolivar,29.48,-94.57,2435
77651,STANDARD,Port Neches,29.97,-93.94,12400
77655,STANDARD,Sabine Pass,29.73,-93.89,320
77656,STANDARD,Silsbee,30.34,-94.18,14830
77657,STANDARD,Lumberton,30.26,-94.2,19330
77659,STANDARD,Sour Lake,30.13,-94.4,4670
77660,STANDARD,Spurger,30.69,-94.17,1400
77661,PO BOX,Stowell,29.78,-94.37,686
77662,STANDARD,Vidor,30.12,-94,22620
77663,PO BOX,Village Mills,30.51,-94.39,1284
77664,STANDARD,Warren,30.61,-94.4,2520
77665,STANDARD,Winnie,29.81,-94.38,6350
77670,PO BOX,Vidor,30.12,-94,1595
77701,STANDARD,Beaumont,30.07,-94.11,11850
77702,STANDARD,Beaumont,30.09,-94.13,2560
77703,STANDARD,Beaumont,30.14,-94.11,11720
77704,PO BOX,Beaumont,30.08,-94.14,752
77705,STANDARD,Beaumont,29.9,-94.16,22770
77706,STANDARD,Beaumont,30.1,-94.17,25660
77707,STANDARD,Beaumont,30.08,-94.14,15730
77708,STANDARD,Beaumont,30.15,-94.16,11030
77709,PO BOX,Beaumont,30.14,-94.14,0
77710,PO BOX,Beaumont,30.08,-94.14,128
77713,STANDARD,Beaumont,30.07,-94.25,11950
77720,PO BOX,Beaumont,30.08,-94.14,891
77725,PO BOX,Beaumont,30.08,-94.14,535
77726,PO BOX,Beaumont,30.08,-94.14,1322
77801,STANDARD,Bryan,30.64,-96.36,10220
77802,STANDARD,Bryan,30.66,-96.36,20410
77803,STANDARD,Bryan,30.68,-96.39,27760
77805,PO BOX,Bryan,30.66,-96.36,2130
77806,PO BOX,Bryan,30.66,-96.36,1204
77807,STANDARD,Bryan,30.68,-96.48,8740
77808,STANDARD,Bryan,30.8,-96.31,11720
77830,STANDARD,Anderson,30.55,-96.03,2550
77831,STANDARD,Bedias,30.74,-95.92,2520
77833,STANDARD,Brenham,30.15,-96.39,23420
77834,PO BOX,Brenham,30.15,-96.39,1871
77835,STANDARD,Burton,30.17,-96.59,2250
77836,STANDARD,Caldwell,30.52,-96.7,10250
77837,STANDARD,Calvert,30.97,-96.67,1190
77838,PO BOX,Chriesman,30.59,-96.79,119
77840,STANDARD,College Station,30.6,-96.31,18610
77841,PO BOX,College Station,30.6,-96.31,407
77842,PO BOX,College Station,30.6,-96.31,1411
77843,UNIQUE,College Station,30.6,-96.31,107
77844,PO BOX,College Station,30.6,-96.31,262
77845,STANDARD,College Station,30.56,-96.27,48800
77850,PO BOX,Concord,31.26,-96.1,24
77852,PO BOX,Deanville,30.43,-96.74,222
77853,STANDARD,Dime Box,30.35,-96.81,920
77855,PO BOX,Flynn,31.14,-96.12,329
77856,STANDARD,Franklin,31.02,-96.48,4130
77857,PO BOX,Gause,30.78,-96.67,780
77859,STANDARD,Hearne,30.87,-96.59,6550
77861,STANDARD,Iola,30.73,-96.07,2190
77862,PO BOX,Kurten,30.75,-96.33,104
77863,PO BOX,Lyons,30.38,-96.56,507
77864,STANDARD,Madisonville,30.95,-95.9,7180
77865,STANDARD,Marquez,31.23,-96.25,1440
77866,PO BOX,Millican,30.46,-96.2,383
77867,PO BOX,Mumford,30.74,-96.55,139
77868,STANDARD,Navasota,30.38,-96.08,12280
77869,UNIQUE,Navasota,30.35,-96.06,0
77870,PO BOX,New Baden,31.05,-96.4,274
77871,STANDARD,Normangee,31.03,-96.11,3090
77872,STANDARD,North Zulch,30.93,-96.08,1650
77873,STANDARD,Richards,30.54,-95.86,1090
77875,PO BOX,Roans Prairie,30.59,-95.98,126
77876,PO BOX,Shiro,30.6,-95.87,384
77878,PO BOX,Snook,30.49,-96.46,970
77879,STANDARD,Somerville,30.34,-96.53,3780
77880,STANDARD,Washington,30.33,-96.22,1660
77881,PO BOX,Wellborn,30.53,-96.3,341
77882,PO BOX,Wheelock,30.91,-96.38,307
77901,STANDARD,Victoria,28.82,-96.98,36340
77902,PO BOX,Victoria,28.82,-96.98,1127
77903,PO BOX,Victoria,28.82,-96.98,2273
77904,STANDARD,Victoria,28.94,-97.02,24590
77905,STANDARD,Victoria,28.73,-97.04,13720
77950,PO BOX,Austwell,28.39,-96.84,212
77951,PO BOX,Bloomington,28.65,-96.9,2348
77954,STANDARD,Cuero,29.09,-97.28,9250
77957,STANDARD,Edna,28.97,-96.64,7900
77960,PO BOX,Fannin,28.69,-97.21,151
77961,PO BOX,Francitas,28.86,-96.35,112
77962,STANDARD,Ganado,29.04,-96.51,3730
77963,STANDARD,Goliad,28.66,-97.39,4800
77964,STANDARD,Hallettsville,29.44,-96.94,7170
77967,PO BOX,Hochheim,29.31,-97.3,25
77968,STANDARD,Inez,28.87,-96.79,2870
77969,PO BOX,La Salle,28.76,-96.62,126
77970,PO BOX,La Ward,28.84,-96.46,327
77971,STANDARD,Lolita,28.83,-96.52,930
77973,PO BOX,Mcfaddin,28.54,-96.97,20
77974,STANDARD,Meyersville,28.89,-97.31,460
77975,STANDARD,Moulton,29.57,-97.14,1650
77976,PO BOX,Nursery,28.95,-97.12,395
77977,PO BOX,Placedo,28.7,-96.79,671
77978,PO BOX,Point Comfort,28.67,-96.55,770
77979,STANDARD,Port Lavaca,28.61,-96.62,16320
77982,PO BOX,Port O Connor,28.44,-96.49,916
77983,STANDARD,Seadrift,28.41,-96.71,1850
77984,STANDARD,Shiner,29.43,-97.17,3970
77986,PO BOX,Sublime,29.48,-96.8,49
77987,PO BOX,Sweet Home,29.35,-97.08,213
77988,PO BOX,Telferner,28.84,-96.89,738
77989,PO BOX,Thomaston,29,-97.15,115
77990,STANDARD,Tivoli,28.43,-96.88,610
77991,PO BOX,Vanderbilt,28.8,-96.61,537
77993,PO BOX,Weesatche,28.86,-97.43,140
77994,STANDARD,Westhoff,29.2,-97.46,360
77995,STANDARD,Yoakum,29.29,-97.14,8820
78001,PO BOX,Artesia Wells,28.29,-99.21,15
78002,STANDARD,Atascosa,29.28,-98.73,6860
78003,STANDARD,Bandera,29.72,-99.07,7770
78004,STANDARD,Bergheim,29.9,-98.56,560
78005,STANDARD,Bigfoot,29.05,-98.85,660
78006,STANDARD,Boerne,29.8,-98.73,31860
78007,STANDARD,Calliham,28.46,-98.35,120
78008,STANDARD,Campbellton,28.75,-98.3,260
78009,STANDARD,Castroville,29.34,-98.87,7340
78010,STANDARD,Center Point,29.93,-99.03,2800
78011,STANDARD,Charlotte,28.85,-98.7,1900
78012,STANDARD,Christine,28.78,-98.49,450
78013,STANDARD,Comfort,29.97,-98.9,5370
78014,STANDARD,Cotulla,28.43,-99.23,4300
78015,STANDARD,Boerne,29.75,-98.65,13970
78016,STANDARD,Devine,29.14,-98.9,9000
78017,STANDARD,Dilley,28.66,-99.17,3650
78019,PO BOX,Encinal,28.04,-99.35,882
78021,STANDARD,Fowlerton,28.45,-98.81,116
78022,STANDARD,George West,28.33,-98.11,4510
78023,STANDARD,Helotes,29.56,-98.69,27840
78024,STANDARD,Hunt,30.06,-99.33,1390
78025,STANDARD,Ingram,30.07,-99.23,4490
78026,STANDARD,Jourdanton,28.91,-98.54,5550
78027,STANDARD,Kendalia,29.96,-98.51,400
78028,STANDARD,Kerrville,30.04,-99.13,32280
78029,PO BOX,Kerrville,30.16,-99.35,2636
78039,STANDARD,La Coste,29.3,-98.81,1570
78040,STANDARD,Laredo,27.51,-99.5,38260
78041,STANDARD,Laredo,27.55,-99.46,44440
78042,PO BOX,Laredo,27.53,-99.48,1802
78043,STANDARD,Laredo,27.53,-99.48,41100
78044,PO BOX,Laredo,27.75,-99.13,2525
78045,STANDARD,Laredo,27.83,-99.69,63040
78046,STANDARD,Laredo,27.37,-99.35,63800
78049,UNIQUE,Laredo,27.53,-99.48,0
78050,PO BOX,Leming,29.06,-98.48,1172
78052,STANDARD,Lytle,29.23,-98.79,6990
78054,PO BOX,Macdona,29.41,-98.63,584
78055,STANDARD,Medina,29.8,-99.25,1310
78056,STANDARD,Mico,29.53,-98.93,1790
78057,STANDARD,Moore,29.05,-99.01,980
78058,STANDARD,Mountain Home,30.16,-99.36,990
78059,STANDARD,Natalia,29.19,-98.85,4630
78060,STANDARD,Oakville,28.45,-98.11,49
78061,STANDARD,Pearsall,28.88,-99.09,8570
78062,PO BOX,Peggy,28.79,-98.24,0
78063,STANDARD,Pipe Creek,29.71,-98.93,7730
78064,STANDARD,Pleasanton,28.96,-98.49,13470
78065,STANDARD,Poteet,29.03,-98.57,9580
78066,STANDARD,Rio Medina,29.5,-98.85,620
78067,STANDARD,San Ygnacio,27.13,-99.33,700
78069,STANDARD,Somerset,29.19,-98.68,4630
78070,STANDARD,Spring Branch,29.86,-98.4,15150
78071,STANDARD,Three Rivers,28.46,-98.17,3200
78072,STANDARD,Tilden,28.45,-98.54,740
78073,STANDARD,Von Ormy,29.25,-98.62,7550
78074,PO BOX,Waring,29.95,-98.8,192
78075,STANDARD,Whitsett,28.62,-98.37,132
78076,STANDARD,Zapata,26.89,-99.26,11170
78101,STANDARD,Adkins,29.37,-98.25,7890
78102,STANDARD,Beeville,28.4,-97.74,16440
78104,PO BOX,Beeville,28.52,-97.76,2511
78107,PO BOX,Berclair,28.5,-97.53,233
78108,STANDARD,Cibolo,29.57,-98.23,35880
78109,STANDARD,Converse,29.51,-98.31,41270
78111,STANDARD,Ecleto,29.03,-97.75,0
78112,STANDARD,Elmendorf,29.25,-98.33,7800
78113,STANDARD,Falls City,28.98,-98.02,2180
78114,STANDARD,Floresville,29.13,-98.15,18770
78115,PO BOX,Geronimo,29.66,-97.96,419
78116,STANDARD,Gillett,29.13,-97.8,320
78117,STANDARD,Hobson,28.93,-97.98,510
78118,STANDARD,Karnes City,28.88,-97.9,3930
78119,STANDARD,Kenedy,28.81,-97.85,4510
78121,STANDARD,La Vernia,29.35,-98.11,12700
78122,STANDARD,Leesville,29.43,-97.74,290
78123,STANDARD,Mc Queeney,29.59,-98.04,2160
78124,STANDARD,Marion,29.57,-98.14,5540
78125,PO BOX,Mineral,28.55,-97.97,145
78130,STANDARD,New Braunfels,29.7,-98.11,64210
78131,PO BOX,New Braunfels,29.7,-98.11,1911
78132,STANDARD,New Braunfels,29.76,-98.19,24830
78133,STANDARD,Canyon Lake,29.87,-98.26,15360
78135,UNIQUE,New Braunfels,29.7,-98.11,0
78140,STANDARD,Nixon,29.26,-97.76,3290
78141,STANDARD,Nordheim,28.92,-97.61,580
78142,PO BOX,Normanna,28.53,-97.79,230
78143,PO BOX,Pandora,29.26,-97.85,60
78144,PO BOX,Panna Maria,28.95,-97.89,22
78145,PO BOX,Pawnee,28.64,-98,227
78146,PO BOX,Pettus,28.6,-97.84,675
78147,PO BOX,Poth,29.07,-98.08,2094
78148,STANDARD,Universal City,29.55,-98.3,19560
78150,STANDARD,Randolph A F B,29.53,-98.28,553
78151,STANDARD,Runge,28.88,-97.71,1320
78152,STANDARD,Saint Hedwig,29.42,-98.21,2280
78154,STANDARD,Schertz,29.55,-98.26,34510
78155,STANDARD,Seguin,29.57,-97.96,40840
78156,PO BOX,Seguin,29.57,-97.96,1487
78159,STANDARD,Smiley,29.27,-97.63,860
78160,STANDARD,Stockdale,29.23,-97.96,3700
78161,STANDARD,Sutherland Springs,29.29,-98.06,720
78162,PO BOX,Tuleta,28.56,-97.8,373
78163,STANDARD,Bulverde,29.77,-98.45,10140
78164,STANDARD,Yorktown,28.98,-97.5,3480
78201,STANDARD,San Antonio,29.47,-98.53,37230
78202,STANDARD,San Antonio,29.43,-98.46,9370
78203,STANDARD,San Antonio,29.42,-98.46,5360
78204,STANDARD,San Antonio,29.4,-98.51,9500
78205,STANDARD,San Antonio,29.42,-98.49,980
78206,STANDARD,San Antonio,29.45,-98.5,0
78207,STANDARD,San Antonio,29.42,-98.53,39910
78208,STANDARD,San Antonio,29.44,-98.46,3670
78209,STANDARD,San Antonio,29.49,-98.46,35010
78210,STANDARD,San Antonio,29.4,-98.46,30780
78211,STANDARD,San Antonio,29.34,-98.57,28400
78212,STANDARD,San Antonio,29.45,-98.5,21690
78213,STANDARD,San Antonio,29.52,-98.52,37180
78214,STANDARD,San Antonio,29.32,-98.47,20140
78215,STANDARD,San Antonio,29.44,-98.48,1730
78216,STANDARD,San Antonio,29.54,-98.49,34950
78217,STANDARD,San Antonio,29.54,-98.42,30080
78218,STANDARD,San Antonio,29.49,-98.4,29730
78219,STANDARD,San Antonio,29.45,-98.39,13890
78220,STANDARD,San Antonio,29.42,-98.39,14900
78221,STANDARD,San Antonio,29.28,-98.48,32890
78222,STANDARD,San Antonio,29.35,-98.37,18900
78223,STANDARD,San Antonio,29.31,-98.39,46270
78224,STANDARD,San Antonio,29.31,-98.53,17250
78225,STANDARD,San Antonio,29.39,-98.53,11450
78226,STANDARD,San Antonio,29.38,-98.57,5680
78227,STANDARD,San Antonio,29.41,-98.63,42240
78228,STANDARD,San Antonio,29.46,-98.57,51460
78229,STANDARD,San Antonio,29.5,-98.57,24550
78230,STANDARD,San Antonio,29.55,-98.56,36540
78231,STANDARD,San Antonio,29.58,-98.54,8490
78232,STANDARD,San Antonio,29.59,-98.47,33320
78233,STANDARD,San Antonio,29.56,-98.36,42750
78234,STANDARD,San Antonio,29.46,-98.44,4720
78235,STANDARD,San Antonio,29.35,-98.44,670
78236,STANDARD,Lackland A F B,29.39,-98.62,2730
78237,STANDARD,San Antonio,29.42,-98.57,32350
78238,STANDARD,San Antonio,29.47,-98.62,22300
78239,STANDARD,San Antonio,29.52,-98.36,27590
78240,STANDARD,San Antonio,29.53,-98.61,47240
78241,STANDARD,San Antonio,29.45,-98.5,0
78242,STANDARD,San Antonio,29.35,-98.61,28450
78243,STANDARD,San Antonio,29.37,-98.59,15
78244,STANDARD,San Antonio,29.47,-98.35,30130
78245,STANDARD,San Antonio,29.4,-98.73,69610
78246,PO BOX,San Antonio,29.45,-98.5,462
78247,STANDARD,San Antonio,29.59,-98.41,47650
78248,STANDARD,San Antonio,29.59,-98.53,13500
78249,STANDARD,San Antonio,29.57,-98.62,42580
78250,STANDARD,San Antonio,29.5,-98.66,52460
78251,STANDARD,San Antonio,29.46,-98.68,51420
78252,STANDARD,San Antonio,29.34,-98.71,8470
78253,STANDARD,San Antonio,29.47,-98.8,44840
78254,STANDARD,San Antonio,29.54,-98.73,50590
78255,STANDARD,San Antonio,29.65,-98.66,14350
78256,STANDARD,San Antonio,29.62,-98.62,6950
78257,STANDARD,San Antonio,29.66,-98.58,5560
78258,STANDARD,San Antonio,29.63,-98.5,44340
78259,STANDARD,San Antonio,29.63,-98.43,25530
78260,STANDARD,San Antonio,29.7,-98.49,30190
78261,STANDARD,San Antonio,29.69,-98.4,19920
78262,STANDARD,San Antonio,29.42,-98.49,0
78263,STANDARD,San Antonio,29.36,-98.3,4280
78264,STANDARD,San Antonio,29.2,-98.49,11380
78265,PO BOX,San Antonio,29.45,-98.5,992
78266,STANDARD,San Antonio,29.66,-98.34,6810
78268,PO BOX,San Antonio,29.45,-98.5,580
78269,PO BOX,San Antonio,29.45,-98.5,912
78270,PO BOX,San Antonio,29.45,-98.5,642
78275,UNIQUE,San Antonio,29.53,-98.42,0
78278,PO BOX,San Antonio,29.45,-98.5,917
78279,PO BOX,San Antonio,29.45,-98.5,424
78280,PO BOX,San Antonio,29.45,-98.5,196
78283,PO BOX,San Antonio,29.45,-98.5,801
78284,STANDARD,San Antonio,29.45,-98.5,0
78285,STANDARD,San Antonio,29.45,-98.5,0
78286,UNIQUE,San Antonio,29.42,-98.49,0
78287,UNIQUE,San Antonio,29.45,-98.5,0
78288,UNIQUE,San Antonio,29.45,-98.5,84
78289,UNIQUE,San Antonio,29.45,-98.5,0
78291,PO BOX,San Antonio,29.45,-98.5,103
78292,PO BOX,San Antonio,29.45,-98.5,47
78293,PO BOX,San Antonio,29.45,-98.5,46
78294,PO BOX,San Antonio,29.45,-98.5,14
78295,PO BOX,San Antonio,29.45,-98.5,64
78296,PO BOX,San Antonio,29.45,-98.5,67
78297,PO BOX,San Antonio,29.45,-98.5,68
78298,PO BOX,San Antonio,29.45,-98.5,29
78299,PO BOX,San Antonio,29.45,-98.5,169
78330,STANDARD,Agua Dulce,27.74,-97.92,930
78332,STANDARD,Alice,27.75,-98.06,24020
78333,PO BOX,Alice,27.75,-98.06,2906
78335,PO BOX,Aransas Pass,27.87,-97.09,2158
78336,STANDARD,Aransas Pass,27.9,-97.14,9640
78338,PO BOX,Armstrong,26.91,-97.77,60
78339,PO BOX,Banquete,27.81,-97.79,1211
78340,STANDARD,Bayside,28.09,-97.21,370
78341,PO BOX,Benavides,27.63,-98.5,1670
78342,PO BOX,Ben Bolt,27.66,-98.08,538
78343,STANDARD,Bishop,27.58,-97.79,3940
78344,STANDARD,Bruni,27.42,-98.84,360
78347,PO BOX,Chapman Ranch,27.58,-97.45,119
78349,STANDARD,Concepcion,27.38,-98.27,330
78350,PO BOX,Dinero,28.2,-97.93,106
78351,PO BOX,Driscoll,27.67,-97.75,883
78352,PO BOX,Edroy,27.96,-97.68,512
78353,STANDARD,Encino,26.93,-98.13,270
78355,STANDARD,Falfurrias,27.22,-98.14,6200
78357,STANDARD,Freer,27.88,-98.61,3180
78358,PO BOX,Fulton,28.07,-97.04,2354
78359,PO BOX,Gregory,27.92,-97.29,2165
78360,STANDARD,Guerra,26.88,-98.88,0
78361,STANDARD,Hebbronville,27.31,-98.68,4510
78362,STANDARD,Ingleside,27.87,-97.2,9470
78363,STANDARD,Kingsville,27.5,-97.86,22860
78364,PO BOX,Kingsville,27.5,-97.86,1900
78368,STANDARD,Mathis,28.09,-97.82,8370
78369,STANDARD,Mirando City,27.37,-99,350
78370,STANDARD,Odem,27.94,-97.58,4660
78371,PO BOX,Oilton,27.62,-98.95,289
78372,STANDARD,Orange Grove,27.95,-97.93,5350
78373,STANDARD,Port Aransas,27.82,-97.06,3530
78374,STANDARD,Portland,27.87,-97.32,17560
78375,STANDARD,Premont,27.35,-98.12,2840
78376,STANDARD,Realitos,27.42,-98.55,280
78377,STANDARD,Refugio,28.3,-97.27,3390
78379,STANDARD,Riviera,27.28,-97.81,1490
78380,STANDARD,Robstown,27.79,-97.66,19730
78381,PO BOX,Rockport,28.04,-97.05,3080
78382,STANDARD,Rockport,28.04,-97.05,14290
78383,STANDARD,Sandia,28.01,-97.88,3220
78384,STANDARD,San Diego,27.85,-98.39,5200
78385,PO BOX,Sarita,27.21,-97.8,279
78387,STANDARD,Sinton,28.03,-97.5,8850
78389,STANDARD,Skidmore,28.23,-97.68,1670
78390,STANDARD,Taft,27.98,-97.39,5510
78391,STANDARD,Tynan,28.18,-97.71,280
78393,STANDARD,Woodsboro,28.23,-97.32,2230
78401,STANDARD,Corpus Christi,27.8,-97.39,2770
78402,STANDARD,Corpus Christi,27.82,-97.39,480
78403,PO BOX,Corpus Christi,27.8,-97.39,1097
78404,STANDARD,Corpus Christi,27.77,-97.4,12800
78405,STANDARD,Corpus Christi,27.77,-97.44,12530
78406,STANDARD,Corpus Christi,27.77,-97.52,820
78407,STANDARD,Corpus Christi,27.81,-97.44,2290
78408,STANDARD,Corpus Christi,27.79,-97.45,10070
78409,STANDARD,Corpus Christi,27.81,-97.52,2440
78410,STANDARD,Corpus Christi,27.84,-97.6,23920
78411,STANDARD,Corpus Christi,27.73,-97.39,23890
78412,STANDARD,Corpus Christi,27.7,-97.35,28820
78413,STANDARD,Corpus Christi,27.68,-97.41,33500
78414,STANDARD,Corpus Christi,27.66,-97.37,34530
78415,STANDARD,Corpus Christi,27.66,-97.48,35850
78416,STANDARD,Corpus Christi,27.75,-97.44,13070
78417,STANDARD,Corpus Christi,27.74,-97.47,4020
78418,STANDARD,Corpus Christi,27.63,-97.27,26630
78419,STANDARD,Corpus Christi,27.7,-97.27,360
78426,PO BOX,Corpus Christi,27.8,-97.39,703
78427,PO BOX,Corpus Christi,27.8,-97.39,788
78460,PO BOX,Corpus Christi,27.8,-97.39,646
78461,UNIQUE,Corpus Christi,27.79,-97.42,0
78463,PO BOX,Corpus Christi,27.8,-97.39,597
78465,PO BOX,Corpus Christi,27.8,-97.39,560
78466,PO BOX,Corpus Christi,27.8,-97.39,985
78467,PO BOX,Corpus Christi,27.8,-97.39,1009
78468,PO BOX,Corpus Christi,27.8,-97.39,602
78469,PO BOX,Corpus Christi,27.8,-97.39,803
78470,STANDARD,Corpus Christi,27.8,-97.39,44
78471,STANDARD,Corpus Christi,27.8,-97.39,58
78472,PO BOX,Corpus Christi,27.8,-97.39,289
78473,STANDARD,Corpus Christi,27.79,-97.39,94
78474,STANDARD,Corpus Christi,27.8,-97.39,0
78475,STANDARD,Corpus Christi,27.79,-97.39,41
78476,STANDARD,Corpus Christi,27.8,-97.39,0
78477,STANDARD,Corpus Christi,27.8,-97.39,0
78478,STANDARD,Corpus Christi,27.79,-97.39,0
78480,PO BOX,Corpus Christi,27.8,-97.39,800
78501,STANDARD,Mcallen,26.21,-98.23,50270
78502,PO BOX,Mcallen,26.21,-98.23,3983
78503,STANDARD,Mcallen,26.16,-98.25,19350
78504,STANDARD,Mcallen,26.27,-98.24,46740
78505,PO BOX,Mcallen,26.21,-98.23,2475
78516,STANDARD,Alamo,26.18,-98.11,28010
78520,STANDARD,Brownsville,25.96,-97.55,57530
78521,STANDARD,Brownsville,25.92,-97.48,85420
78522,PO BOX,Brownsville,25.92,-97.48,1093
78523,PO BOX,Brownsville,25.92,-97.48,2151
78526,STANDARD,Brownsville,25.99,-97.44,46080
78535,PO BOX,Combes,26.25,-97.74,1516
78536,STANDARD,Delmita,26.64,-98.4,280
78537,STANDARD,Donna,26.16,-98.05,37100
78538,STANDARD,Edcouch,26.29,-97.96,9620
78539,STANDARD,Edinburg,26.29,-98.16,29230
78540,PO BOX,Edinburg,26.29,-98.16,5041
78541,STANDARD,Edinburg,26.46,-98.25,33600
78542,STANDARD,Edinburg,26.35,-98.11,54520
78543,PO BOX,Elsa,26.29,-97.99,8228
78545,PO BOX,Falcon Heights,26.59,-99.12,674
78547,PO BOX,Garciasville,26.33,-98.71,2899
78548,PO BOX,Grulla,26.27,-98.65,2881
78549,PO BOX,Hargill,26.45,-98.04,1006
78550,STANDARD,Harlingen,26.19,-97.68,44820
78551,PO BOX,Harlingen,26.19,-97.68,1370
78552,STANDARD,Harlingen,26.2,-97.75,28970
78553,PO BOX,Harlingen,26.19,-97.68,2081
78557,STANDARD,Hidalgo,26.1,-98.25,15400
78558,PO BOX,La Blanca,26.31,-98.04,2904
78559,STANDARD,La Feria,26.15,-97.82,10480
78560,STANDARD,La Joya,26.24,-98.47,4630
78561,PO BOX,Lasara,26.48,-97.92,606
78562,PO BOX,La Villa,26.29,-97.92,2128
78563,STANDARD,Linn,26.6,-98.19,550
78564,STANDARD,Lopeno,26.72,-99.1,257
78565,PO BOX,Los Ebanos,26.25,-98.57,1286
78566,STANDARD,Los Fresnos,26.07,-97.47,14880
78567,PO BOX,Los Indios,26.05,-97.74,1257
78568,PO BOX,Lozano,26.1,-97.47,588
78569,STANDARD,Lyford,26.41,-97.78,3660
78570,STANDARD,Mercedes,26.14,-97.92,28710
78572,STANDARD,Mission,26.21,-98.31,63780
78573,STANDARD,Mission,26.3,-98.3,34200
78574,STANDARD,Mission,26.31,-98.35,48860
78575,STANDARD,Olmito,26.03,-97.55,4230
78576,STANDARD,Penitas,26.23,-98.44,10100
78577,STANDARD,Pharr,26.18,-98.18,65380
78578,STANDARD,Port Isabel,26.07,-97.22,9400
78579,PO BOX,Progreso,26.09,-97.96,4374
78580,STANDARD,Raymondville,26.47,-97.78,9900
78582,STANDARD,Rio Grande City,26.55,-98.72,34350
78583,STANDARD,Rio Hondo,26.23,-97.58,5520
78584,STANDARD,Roma,26.4,-99.01,17920
78585,PO BOX,Salineno,26.53,-99.11,241
78586,STANDARD,San Benito,26.13,-97.63,46250
78588,STANDARD,San Isidro,26.73,-98.39,350
78589,STANDARD,San Juan,26.19,-98.15,37390
78590,PO BOX,San Perlita,26.51,-97.65,427
78591,STANDARD,Santa Elena,26.58,-98.52,250
78592,PO BOX,Santa Maria,26.06,-97.85,1580
78593,STANDARD,Santa Rosa,26.25,-97.82,4940
78594,PO BOX,Sebastian,26.34,-97.79,1978
78595,STANDARD,Sullivan City,26.28,-98.56,5090
78596,STANDARD,Weslaco,26.16,-97.98,32650
78597,STANDARD,South Padre Island,26.41,-97.23,2180
78598,PO BOX,Port Mansfield,26.55,-97.43,270
78599,PO BOX,Weslaco,26.16,-97.98,4239
78602,STANDARD,Bastrop,30.11,-97.3,23720
78604,PO BOX,Belmont,29.53,-97.68,70
78605,STANDARD,Bertram,30.74,-98.05,4660
78606,STANDARD,Blanco,30.09,-98.42,5040
78607,STANDARD,Bluffton,30.82,-98.48,166
78608,STANDARD,Briggs,30.94,-97.93,480
78609,STANDARD,Buchanan Dam,30.76,-98.44,1530
78610,STANDARD,Buda,30.08,-97.83,31310
78611,STANDARD,Burnet,30.76,-98.22,11640
78612,STANDARD,Cedar Creek,30.08,-97.5,12470
78613,STANDARD,Cedar Park,30.51,-97.83,74830
78614,STANDARD,Cost,29.43,-97.56,490
78615,STANDARD,Coupland,30.46,-97.38,1250
78616,STANDARD,Dale,29.87,-97.53,7710
78617,STANDARD,Del Valle,30.16,-97.6,22050
78618,STANDARD,Doss,30.47,-99.18,210
78619,STANDARD,Driftwood,30.11,-98.03,4020
78620,STANDARD,Dripping Springs,30.18,-98.08,15950
78621,STANDARD,Elgin,30.34,-97.37,21410
78622,PO BOX,Fentress,29.75,-97.78,399
78623,STANDARD,Fischer,29.97,-98.23,1050
78624,STANDARD,Fredericksburg,30.27,-98.87,20470
78626,STANDARD,Georgetown,30.64,-97.68,25100
78627,PO BOX,Georgetown,30.64,-97.68,1911
78628,STANDARD,Georgetown,30.65,-97.75,27340
78629,STANDARD,Gonzales,29.5,-97.44,11110
78630,PO BOX,Cedar Park,30.51,-97.83,1447
78631,STANDARD,Harper,30.3,-99.25,2400
78632,STANDARD,Harwood,29.66,-97.48,920
78633,STANDARD,Georgetown,30.7,-97.73,22450
78634,STANDARD,Hutto,30.54,-97.54,28610
78635,STANDARD,Hye,30.18,-98.57,108
78636,STANDARD,Johnson City,30.27,-98.4,3410
78638,STANDARD,Kingsbury,29.65,-97.81,1840
78639,STANDARD,Kingsland,30.66,-98.45,5970
78640,STANDARD,Kyle,29.99,-97.87,48090
78641,STANDARD,Leander,30.56,-97.86,52260
78642,STANDARD,Liberty Hill,30.66,-97.92,11470
78643,STANDARD,Llano,30.75,-98.67,5430
78644,STANDARD,Lockhart,29.87,-97.67,15770
78645,STANDARD,Leander,30.45,-97.97,10160
78646,PO BOX,Leander,30.56,-97.86,1152
78648,STANDARD,Luling,29.68,-97.64,6730
78650,STANDARD,Mc Dade,30.3,-97.22,1370
78651,PO BOX,Mc Neil,30.45,-97.71,60
78652,STANDARD,Manchaca,30.13,-97.89,4260
78653,STANDARD,Manor,30.34,-97.55,19180
78654,STANDARD,Marble Falls,30.57,-98.27,16930
78655,STANDARD,Martindale,29.84,-97.84,2670
78656,STANDARD,Maxwell,29.9,-97.81,2080
78657,STANDARD,Horseshoe Bay,30.53,-98.38,5130
78658,PO BOX,Ottine,29.59,-97.59,32
78659,STANDARD,Paige,30.21,-97.11,2510
78660,STANDARD,Pflugerville,30.44,-97.62,78440
78661,PO BOX,Prairie Lea,29.73,-97.76,447
78662,STANDARD,Red Rock,29.93,-97.41,2110
78663,STANDARD,Round Mountain,30.43,-98.35,600
78664,STANDARD,Round Rock,30.51,-97.67,54360
78665,STANDARD,Round Rock,30.54,-97.64,40910
78666,STANDARD,San Marcos,29.88,-97.92,46690
78667,PO BOX,San Marcos,29.88,-97.92,1772
78669,STANDARD,Spicewood,30.48,-98.16,9240
78670,PO BOX,Staples,29.78,-97.83,333
78671,STANDARD,Stonewall,30.22,-98.63,720
78672,STANDARD,Tow,30.88,-98.46,660
78673,PO BOX,Walburg,30.75,-97.59,142
78674,PO BOX,Weir,30.67,-97.59,427
78675,STANDARD,Willow City,30.4,-98.7,166
78676,STANDARD,Wimberley,29.99,-98.1,12270
78677,STANDARD,Wrightsboro,29.35,-97.5,50
78680,PO BOX,Round Rock,30.51,-97.67,1062
78681,STANDARD,Round Rock,30.53,-97.73,52740
78682,UNIQUE,Round Rock,30.51,-97.67,46
78683,PO BOX,Round Rock,30.51,-97.67,665
78691,PO BOX,Pflugerville,30.44,-97.62,1220
78701,STANDARD,Austin,30.26,-97.74,6360
78702,STANDARD,Austin,30.26,-97.71,19040
78703,STANDARD,Austin,30.29,-97.77,18330
78704,STANDARD,Austin,30.24,-97.77,37100
78705,STANDARD,Austin,30.29,-97.74,6710
78708,PO BOX,Austin,30.26,-97.74,735
78709,PO BOX,Austin,30.26,-97.74,807
78710,STANDARD,Austin,30.26,-97.74,0
78711,PO BOX,Austin,30.26,-97.74,401
78712,STANDARD,Austin,30.28,-97.73,42
78713,PO BOX,Austin,30.26,-97.74,293
78714,PO BOX,Austin,30.26,-97.74,1176
78715,PO BOX,Austin,30.26,-97.74,942
78716,PO BOX,Austin,30.26,-97.74,914
78717,STANDARD,Austin,30.49,-97.75,28170
78718,PO BOX,Austin,30.26,-97.74,292
78719,STANDARD,Austin,30.18,-97.68,1820
78720,PO BOX,Austin,30.26,-97.74,1234
78721,STANDARD,Austin,30.27,-97.68,9990
78722,STANDARD,Austin,30.29,-97.71,5220
78723,STANDARD,Austin,30.3,-97.69,27880
78724,STANDARD,Austin,30.3,-97.62,22920
78725,STANDARD,Austin,30.23,-97.61,7350
78726,STANDARD,Austin,30.43,-97.84,12950
78727,STANDARD,Austin,30.43,-97.72,25660
78728,STANDARD,Austin,30.45,-97.69,19640
78729,STANDARD,Austin,30.46,-97.76,26280
78730,STANDARD,Austin,30.37,-97.84,8390
78731,STANDARD,Austin,30.35,-97.77,23730
78732,STANDARD,Austin,30.38,-97.9,16320
78733,STANDARD,Austin,30.32,-97.88,8950
78734,STANDARD,Austin,30.38,-97.95,19730
78735,STANDARD,Austin,30.27,-97.87,15460
78736,STANDARD,Austin,30.26,-97.96,7340
78737,STANDARD,Austin,30.19,-97.96,16010
78738,STANDARD,Austin,30.32,-97.96,18500
78739,STANDARD,Austin,30.18,-97.89,18860
78741,STANDARD,Austin,30.23,-97.71,37200
78742,STANDARD,Austin,30.24,-97.66,750
78744,STANDARD,Austin,30.18,-97.73,43740
78745,STANDARD,Austin,30.21,-97.8,51280
78746,STANDARD,Austin,30.3,-97.81,26790
78747,STANDARD,Austin,30.13,-97.74,17270
78748,STANDARD,Austin,30.17,-97.82,43440
78749,STANDARD,Austin,30.22,-97.86,32880
78750,STANDARD,Austin,30.42,-97.8,26730
78751,STANDARD,Austin,30.31,-97.72,10630
78752,STANDARD,Austin,30.33,-97.7,16400
78753,STANDARD,Austin,30.38,-97.67,50670
78754,STANDARD,Austin,30.36,-97.64,19330
78755,PO BOX,Austin,30.26,-97.74,763
78756,STANDARD,Austin,30.32,-97.74,6870
78757,STANDARD,Austin,30.35,-97.73,19900
78758,STANDARD,Austin,30.39,-97.71,42090
78759,STANDARD,Austin,30.4,-97.76,37970
78760,PO BOX,Austin,30.26,-97.74,955
78761,PO BOX,Austin,30.26,-97.74,1066
78762,PO BOX,Austin,30.26,-97.74,367
78763,PO BOX,Austin,30.26,-97.74,647
78764,PO BOX,Austin,30.26,-97.74,219
78765,PO BOX,Austin,30.26,-97.74,501
78766,PO BOX,Austin,30.26,-97.74,702
78767,PO BOX,Austin,30.26,-97.74,702
78768,PO BOX,Austin,30.26,-97.74,824
78769,PO BOX,Austin,30.26,-97.74,0
78772,UNIQUE,Austin,30.26,-97.74,0
78773,UNIQUE,Austin,30.26,-97.74,23
78774,UNIQUE,Austin,30.26,-97.74,0
78778,UNIQUE,Austin,30.26,-97.74,0
78779,UNIQUE,Austin,30.26,-97.74,0
78780,UNIQUE,Austin,30.26,-97.74,0
78781,UNIQUE,Austin,30.26,-97.74,0
78783,UNIQUE,Austin,30.26,-97.74,0
78785,UNIQUE,Austin,30.26,-97.74,0
78786,UNIQUE,Austin,30.35,-97.65,0
78788,UNIQUE,Austin,30.26,-97.74,0
78789,UNIQUE,Austin,30.26,-97.74,0
78798,STANDARD,Austin,30.37,-97.68,0
78799,STANDARD,Austin,30.27,-97.74,0
78801,STANDARD,Uvalde,29.21,-99.78,18030
78802,PO BOX,Uvalde,29.15,-100.02,2989
78827,STANDARD,Asherton,28.44,-99.76,1220
78828,STANDARD,Barksdale,29.87,-100.02,230
78829,STANDARD,Batesville,28.94,-99.61,1020
78830,STANDARD,Big Wells,28.56,-99.57,610
78832,STANDARD,Brackettville,29.31,-100.41,2670
78833,STANDARD,Camp Wood,29.66,-100.01,1120
78834,STANDARD,Carrizo Springs,28.52,-99.85,7550
78836,PO BOX,Catarina,28.35,-99.61,156
78837,STANDARD,Comstock,29.68,-101.16,318
78838,STANDARD,Concan,29.51,-99.73,430
78839,STANDARD,Crystal City,28.68,-99.82,7650
78840,STANDARD,Del Rio,29.37,-100.89,43660
78841,PO BOX,Del Rio,29.37,-100.89,2135
78842,PO BOX,Del Rio,29.37,-100.89,1733
78843,STANDARD,Laughlin A F B,29.35,-100.78,397
78847,UNIQUE,Del Rio,29.37,-100.89,0
78850,STANDARD,D Hanis,29.35,-99.31,1100
78851,STANDARD,Dryden,30.03,-101.97,50
78852,STANDARD,Eagle Pass,28.7,-100.49,49310
78853,PO BOX,Eagle Pass,28.7,-100.49,11336
78860,PO BOX,El Indio,28.51,-100.31,245
78861,STANDARD,Hondo,29.35,-99.15,10610
78870,STANDARD,Knippa,29.3,-99.63,790
78871,PO BOX,Langtry,29.81,-101.56,55
78872,PO BOX,La Pryor,28.94,-99.84,1641
78873,STANDARD,Leakey,29.72,-99.76,1490
78877,STANDARD,Quemado,28.95,-100.63,810
78879,STANDARD,Rio Frio,29.63,-99.73,190
78880,STANDARD,Rocksprings,30.01,-100.21,1340
78881,STANDARD,Sabinal,29.32,-99.46,2000
78883,STANDARD,Tarpley,29.63,-99.28,230
78884,STANDARD,Utopia,29.61,-99.53,1000
78885,STANDARD,Vanderpool,29.81,-99.54,149
78886,STANDARD,Yancey,29.15,-99.13,540
78931,STANDARD,Bleiblerville,30.02,-96.44,240
78932,STANDARD,Carmine,30.14,-96.68,720
78933,STANDARD,Cat Spring,29.84,-96.32,1320
78934,STANDARD,Columbus,29.7,-96.55,6310
78935,STANDARD,Alleyton,29.74,-96.46,820
78938,STANDARD,Ellinger,29.83,-96.7,360
78940,STANDARD,Fayetteville,29.9,-96.67,1730
78941,STANDARD,Flatonia,29.68,-97.1,2690
78942,STANDARD,Giddings,30.18,-96.92,8890
78943,STANDARD,Glidden,29.71,-96.62,350
78944,STANDARD,Industry,29.99,-96.49,620
78945,STANDARD,La Grange,29.9,-96.87,9400
78946,STANDARD,Ledbetter,30.23,-96.76,940
78947,STANDARD,Lexington,30.41,-97,4050
78948,STANDARD,Lincoln,30.31,-96.97,760
78949,STANDARD,Muldoon,29.81,-97.06,400
78950,STANDARD,New Ulm,29.87,-96.49,1780
78951,PO BOX,Oakland,29.59,-96.82,42
78952,PO BOX,Plum,29.92,-96.95,182
78953,STANDARD,Rosanky,29.93,-97.3,1010
78954,STANDARD,Round Top,30.06,-96.69,1010
78956,STANDARD,Schulenburg,29.68,-96.9,4740
78957,STANDARD,Smithville,30,-97.15,7660
78959,STANDARD,Waelder,29.69,-97.29,1760
78960,PO BOX,Warda,30.05,-96.92,161
78961,PO BOX,Warrenton,30.06,-96.69,0
78962,STANDARD,Weimar,29.7,-96.77,4140
78963,STANDARD,West Point,29.96,-97.03,770
79001,STANDARD,Adrian,35.27,-102.66,240
79002,PO BOX,Alanreed,35.21,-100.73,40
79003,PO BOX,Allison,35.6,-100.1,157
79005,STANDARD,Booker,36.45,-100.54,1790
79007,STANDARD,Borger,35.65,-101.4,12590
79008,PO BOX,Borger,35.65,-101.4,1164
79009,STANDARD,Bovina,34.51,-102.88,2160
79010,PO BOX,Boys Ranch,35.51,-102.25,430
79011,STANDARD,Briscoe,35.58,-100.28,210
79012,PO BOX,Bushland,35.19,-102.06,1190
79013,PO BOX,Cactus,36.04,-102.01,3790
79014,STANDARD,Canadian,35.91,-100.38,4360
79015,STANDARD,Canyon,34.98,-101.92,16410
79016,UNIQUE,Canyon,34.98,-101.92,165
79018,STANDARD,Channing,35.68,-102.33,410
79019,STANDARD,Claude,35.1,-101.36,1610
79021,PO BOX,Cotton Center,33.99,-101.99,196
79022,STANDARD,Dalhart,36.06,-102.51,9840
79024,PO BOX,Darrouzett,36.44,-100.32,380
79025,PO BOX,Dawn,34.94,-102.21,97
79027,STANDARD,Dimmitt,34.54,-102.31,4590
79029,STANDARD,Dumas,35.86,-101.96,16280
79031,STANDARD,Earth,34.23,-102.4,1210
79032,PO BOX,Edmonson,34.28,-101.89,184
79033,PO BOX,Farnsworth,36.33,-100.98,106
79034,STANDARD,Follett,36.43,-100.14,690
79035,STANDARD,Friona,34.63,-102.72,5600
79036,STANDARD,Fritch,35.64,-101.59,4250
79039,STANDARD,Groom,35.2,-101.1,690
79040,STANDARD,Gruver,36.25,-101.41,1800
79041,STANDARD,Hale Center,34.06,-101.84,2600
79042,STANDARD,Happy,34.74,-101.85,970
79043,STANDARD,Hart,34.38,-102.11,1230
79044,STANDARD,Hartley,35.88,-102.39,790
79045,STANDARD,Hereford,34.82,-102.39,19440
79046,STANDARD,Higgins,36.12,-100.02,480
79051,PO BOX,Kerrick,36.48,-102.26,51
79052,STANDARD,Kress,34.36,-101.74,1040
79053,PO BOX,Lazbuddie,34.39,-102.61,220
79054,PO BOX,Lefors,35.43,-100.8,604
79056,STANDARD,Lipscomb,36.23,-100.27,49
79057,STANDARD,Mclean,35.23,-100.6,950
79058,STANDARD,Masterson,35.63,-101.96,21
79059,STANDARD,Miami,35.69,-100.64,740
79061,STANDARD,Mobeetie,35.53,-100.44,340
79062,STANDARD,Morse,36.06,-101.47,250
79063,STANDARD,Nazareth,34.54,-102.1,690
79064,STANDARD,Olton,34.17,-102.13,2250
79065,STANDARD,Pampa,35.54,-100.96,18120
79066,PO BOX,Pampa,35.54,-100.96,1048
79068,STANDARD,Panhandle,35.34,-101.38,2770
79070,STANDARD,Perryton,36.39,-100.8,11080
79072,STANDARD,Plainview,34.19,-101.72,21720
79073,PO BOX,Plainview,34.19,-101.72,1362
79077,PO BOX,Sam Norwood,35.05,-100.28,0
79078,PO BOX,Sanford,35.7,-101.53,361
79079,STANDARD,Shamrock,35.21,-100.24,2450
79080,STANDARD,Skellytown,35.57,-101.17,430
79081,STANDARD,Spearman,36.19,-101.19,3750
79082,STANDARD,Springlake,34.23,-102.3,260
79083,STANDARD,Stinnett,35.82,-101.44,2050
79084,STANDARD,Stratford,36.33,-102.07,2350
79085,STANDARD,Summerfield,34.74,-102.51,61
79086,STANDARD,Sunray,36.01,-101.82,1990
79087,STANDARD,Texline,36.37,-103.01,650
79088,STANDARD,Tulia,34.53,-101.77,4430
79091,PO BOX,Umbarger,34.9,-102.13,147
79092,STANDARD,Vega,35.24,-102.42,1090
79093,PO BOX,Waka,36.28,-101.04,69
79094,STANDARD,Wayside,34.79,-101.54,67
79095,STANDARD,Wellington,34.85,-100.21,2300
79096,STANDARD,Wheeler,35.44,-100.27,2490
79097,STANDARD,White Deer,35.43,-101.17,1090
79098,STANDARD,Wildorado,35.15,-102.22,410
79101,STANDARD,Amarillo,35.21,-101.84,1930
79102,STANDARD,Amarillo,35.2,-101.87,9000
79103,STANDARD,Amarillo,35.18,-101.79,9760
79104,STANDARD,Amarillo,35.2,-101.81,6860
79105,PO BOX,Amarillo,35.69,-101.82,1174
79106,STANDARD,Amarillo,35.2,-101.9,23320
79107,STANDARD,Amarillo,35.23,-101.8,30460
79108,STANDARD,Amarillo,35.31,-101.69,10670
79109,STANDARD,Amarillo,35.17,-101.89,38670
79110,STANDARD,Amarillo,35.14,-101.88,17160
79111,STANDARD,Amarillo,35.22,-101.71,1260
79114,PO BOX,Amarillo,35.2,-101.81,2014
79116,PO BOX,Amarillo,35.2,-101.81,698
79117,PO BOX,Amarillo,35.2,-101.81,683
79118,STANDARD,Amarillo,35.11,-101.74,20980
79119,STANDARD,Amarillo,35.11,-102.02,14250
79120,PO BOX,Amarillo,35.2,-101.81,1760
79121,STANDARD,Amarillo,35.17,-101.93,5850
79124,STANDARD,Amarillo,35.26,-101.97,8460
79159,PO BOX,Amarillo,35.2,-101.81,1049
79166,UNIQUE,Amarillo,35.2,-101.81,0
79168,UNIQUE,Amarillo,35.2,-101.81,0
79172,UNIQUE,Amarillo,35.2,-101.81,0
79174,UNIQUE,Amarillo,35.2,-101.81,0
79178,UNIQUE,Amarillo,35.2,-101.81,0
79185,UNIQUE,Amarillo,35.2,-101.81,0
79187,UNIQUE,Amarillo,35.26,-101.71,0
79189,PO BOX,Amarillo,35.2,-101.81,0
79201,STANDARD,Childress,34.42,-100.24,5040
79220,STANDARD,Afton,33.76,-100.81,121
79221,PO BOX,Aiken,34.14,-101.52,0
79223,STANDARD,Cee Vee,34.22,-100.44,18
79225,STANDARD,Chillicothe,34.25,-99.51,870
79226,STANDARD,Clarendon,34.93,-100.89,2410
79227,STANDARD,Crowell,33.98,-99.72,1000
79229,STANDARD,Dickens,33.62,-100.83,250
79230,STANDARD,Dodson,34.76,-100.02,162
79231,PO BOX,Dougherty,33.94,-101.08,51
79233,PO BOX,Estelline,34.52,-100.53,154
79234,STANDARD,Flomot,34.22,-100.98,71
79235,STANDARD,Floydada,33.98,-101.33,3050
79236,PO BOX,Guthrie,33.62,-100.32,236
79237,STANDARD,Hedley,34.86,-100.65,320
79239,STANDARD,Lakeview,34.67,-100.69,167
79240,STANDARD,Lelia Lake,34.9,-100.77,67
79241,STANDARD,Lockney,34.12,-101.44,2100
79243,STANDARD,Mcadoo,33.77,-100.96,79
79244,STANDARD,Matador,34.01,-100.82,630
79245,STANDARD,Memphis,34.72,-100.54,1980
79247,STANDARD,Odell,34.33,-99.41,47
79248,STANDARD,Paducah,34.01,-100.3,1210
79250,STANDARD,Petersburg,33.87,-101.59,1260
79251,STANDARD,Quail,34.9,-100.4,59
79252,STANDARD,Quanah,34.29,-99.74,2480
79255,STANDARD,Quitaque,34.36,-101.05,410
79256,STANDARD,Roaring Springs,33.89,-100.85,200
79257,STANDARD,Silverton,34.47,-101.3,850
79258,PO BOX,South Plains,34.22,-101.3,71
79259,STANDARD,Tell,34.38,-100.39,46
79261,STANDARD,Turkey,34.39,-100.89,340
79311,STANDARD,Abernathy,33.83,-101.84,3070
79312,STANDARD,Amherst,34.01,-102.41,830
79313,STANDARD,Anton,33.81,-102.16,1270
79314,PO BOX,Bledsoe,33.61,-103.02,64
79316,STANDARD,Brownfield,33.17,-102.27,9330
79320,STANDARD,Bula,33.86,-102.67,0
79322,STANDARD,Crosbyton,33.64,-101.23,1590
79323,STANDARD,Denver City,32.96,-102.83,7260
79324,STANDARD,Enochs,33.87,-102.75,54
79325,STANDARD,Farwell,34.39,-102.89,1990
79326,STANDARD,Fieldton,34.08,-102.22,39
79329,STANDARD,Idalou,33.66,-101.68,3100
79330,STANDARD,Justiceburg,33.04,-101.2,48
79331,STANDARD,Lamesa,32.73,-101.95,10030
79336,STANDARD,Levelland,33.57,-102.36,14480
79338,PO BOX,Levelland,33.57,-102.36,197
79339,STANDARD,Littlefield,33.91,-102.33,5970
79342,STANDARD,Loop,32.92,-102.42,390
79343,STANDARD,Lorenzo,33.67,-101.53,1290
79344,STANDARD,Maple,33.84,-102.89,30
79345,STANDARD,Meadow,33.33,-102.2,880
79346,STANDARD,Morton,33.72,-102.75,2080
79347,STANDARD,Muleshoe,34.22,-102.72,7630
79350,PO BOX,New Deal,33.73,-101.83,610
79351,STANDARD,Odonnell,33,-101.82,1110
79353,STANDARD,Pep,33.78,-102.58,29
79355,STANDARD,Plains,33.19,-102.82,1920
79356,STANDARD,Post,33.19,-101.38,3900
79357,STANDARD,Ralls,33.67,-101.38,1990
79358,STANDARD,Ropesville,33.41,-102.15,1060
79359,STANDARD,Seagraves,32.94,-102.56,2820
79360,STANDARD,Seminole,32.71,-102.65,14870
79363,STANDARD,Shallowater,33.69,-101.99,5420
79364,STANDARD,Slaton,33.43,-101.64,6750
79366,STANDARD,Ransom Canyon,33.53,-101.69,1000
79367,PO BOX,Smyer,33.58,-102.16,670
79369,PO BOX,Spade,33.92,-102.15,134
79370,STANDARD,Spur,33.47,-100.85,1240
79371,STANDARD,Sudan,34.06,-102.52,1190
79372,PO BOX,Sundown,33.45,-102.49,1530
79373,STANDARD,Tahoka,33.16,-101.79,2680
79376,STANDARD,Tokio,33.23,-102.67,119
79377,STANDARD,Welch,32.93,-102.13,300
79378,PO BOX,Wellman,33.04,-102.42,252
79379,PO BOX,Whiteface,33.59,-102.61,620
79380,PO BOX,Whitharral,33.74,-102.33,184
79381,STANDARD,Wilson,33.31,-101.72,1060
79382,STANDARD,Wolfforth,33.5,-102.01,6850
79383,PO BOX,New Home,33.32,-101.91,371
79401,STANDARD,Lubbock,33.59,-101.85,2730
79402,STANDARD,Lubbock,33.57,-101.87,0
79403,STANDARD,Lubbock,33.64,-101.78,13610
79404,STANDARD,Lubbock,33.53,-101.79,8460
79405,STANDARD,Lubbock,33.57,-101.84,16
79406,STANDARD,Lubbock,33.59,-101.88,122
79407,STANDARD,Lubbock,33.57,-102.08,16020
79408,PO BOX,Lubbock,33.57,-101.87,1458
79409,STANDARD,Lubbock,33.57,-101.87,131
79410,STANDARD,Lubbock,33.57,-101.89,5610
79411,STANDARD,Lubbock,33.57,-101.87,5610
79412,STANDARD,Lubbock,33.55,-101.86,13320
79413,STANDARD,Lubbock,33.55,-101.89,17970
79414,STANDARD,Lubbock,33.55,-101.92,14690
79415,STANDARD,Lubbock,33.7,-101.9,12740
79416,STANDARD,Lubbock,33.6,-101.98,27020
79423,STANDARD,Lubbock,33.44,-101.86,33260
79424,STANDARD,Lubbock,33.47,-101.95,42380
79430,UNIQUE,Lubbock,33.57,-101.87,0
79452,PO BOX,Lubbock,33.57,-101.87,671
79453,PO BOX,Lubbock,33.57,-101.87,455
79457,UNIQUE,Lubbock,33.57,-101.87,0
79464,PO BOX,Lubbock,33.57,-101.87,942
79490,PO BOX,Lubbock,33.57,-101.87,481
79491,UNIQUE,Lubbock,33.57,-101.87,0
79493,PO BOX,Lubbock,33.57,-101.87,1078
79499,PO BOX,Lubbock,33.57,-101.87,311
79501,STANDARD,Anson,32.75,-99.89,2980
79502,STANDARD,Aspermont,33.13,-100.22,1060
79503,STANDARD,Avoca,32.86,-99.71,177
79504,STANDARD,Baird,32.39,-99.39,2280
79505,STANDARD,Benjamin,33.58,-99.79,250
79506,STANDARD,Blackwell,32.08,-100.31,510
79508,STANDARD,Buffalo Gap,32.28,-99.83,1110
79510,STANDARD,Clyde,32.4,-99.49,6960
79511,STANDARD,Coahoma,32.29,-101.3,1360
79512,STANDARD,Colorado City,32.39,-100.85,5110
79516,PO BOX,Dunn,32.57,-100.89,15
79517,STANDARD,Fluvanna,32.89,-101.15,182
79518,STANDARD,Girard,33.36,-100.66,111
79519,STANDARD,Goldsboro,32.06,-99.68,60
79520,STANDARD,Hamlin,32.88,-100.12,2010
79521,STANDARD,Haskell,33.15,-99.73,2920
79525,STANDARD,Hawley,32.6,-99.81,2730
79526,STANDARD,Hermleigh,32.64,-100.76,910
79527,STANDARD,Ira,32.58,-101,470
79528,STANDARD,Jayton,33.25,-100.57,470
79529,STANDARD,Knox City,33.41,-99.81,1150
79530,STANDARD,Lawn,32.13,-99.75,470
79532,STANDARD,Loraine,32.4,-100.71,800
79533,STANDARD,Lueders,32.79,-99.62,520
79534,STANDARD,Mc Caulley,32.79,-100.22,160
79535,STANDARD,Maryneal,32.23,-100.45,142
79536,STANDARD,Merkel,32.46,-100.01,4550
79537,STANDARD,Nolan,32.27,-100.24,83
79538,STANDARD,Novice,31.98,-99.62,200
79539,STANDARD,O Brien,33.38,-99.84,128
79540,STANDARD,Old Glory,33.12,-100.05,109
79541,STANDARD,Ovalo,32.17,-99.8,710
79543,STANDARD,Roby,32.74,-100.37,1010
79544,STANDARD,Rochester,33.31,-99.85,370
79545,STANDARD,Roscoe,32.44,-100.54,1700
79546,STANDARD,Rotan,32.85,-100.46,1530
79547,STANDARD,Rule,33.18,-99.89,600
79548,STANDARD,Rule,33.05,-99.92,164
79549,STANDARD,Snyder,32.71,-100.91,12980
79550,PO BOX,Snyder,32.71,-100.91,1065
79553,STANDARD,Stamford,32.94,-99.85,2840
79556,STANDARD,Sweetwater,32.46,-100.4,11170
79560,STANDARD,Sylvester,32.72,-100.25,117
79561,STANDARD,Trent,32.48,-100.12,590
79562,STANDARD,Tuscola,32.21,-99.79,4330
79563,STANDARD,Tye,32.45,-99.86,1120
79565,STANDARD,Westbrook,32.35,-101.01,390
79566,STANDARD,Wingate,32.04,-100.11,230
79567,STANDARD,Winters,31.96,-99.93,2790
79601,STANDARD,Abilene,32.45,-99.73,14460
79602,STANDARD,Abilene,32.34,-99.67,20590
79603,STANDARD,Abilene,32.33,-99.93,20390
79604,PO BOX,Abilene,32.45,-99.73,1418
79605,STANDARD,Abilene,32.43,-99.78,26350
79606,STANDARD,Abilene,32.36,-99.82,22840
79607,STANDARD,Dyess Afb,32.43,-99.83,2750
79608,PO BOX,Abilene,32.45,-99.73,1270
79697,UNIQUE,Abilene,32.45,-99.73,40
79698,UNIQUE,Abilene,32.45,-99.73,67
79699,UNIQUE,Abilene,32.46,-99.72,232
79701,STANDARD,Midland,31.99,-102.08,29370
79702,PO BOX,Midland,32.02,-102.1,2858
79703,STANDARD,Midland,31.98,-102.13,20860
79704,PO BOX,Midland,32.02,-102.1,751
79705,STANDARD,Midland,32.02,-102.1,34110
79706,STANDARD,Midland,31.85,-102.01,23890
79707,STANDARD,Midland,32.05,-102.2,33020
79708,PO BOX,Midland,32.02,-102.1,1173
79710,PO BOX,Midland,32.02,-102.1,865
79711,PO BOX,Midland,32.02,-102.1,359
79712,PO BOX,Midland,32.02,-102.1,696
79713,STANDARD,Ackerly,32.52,-101.71,640
79714,STANDARD,Andrews,32.32,-102.54,17350
79718,STANDARD,Balmorhea,30.98,-103.74,580
79719,PO BOX,Barstow,31.46,-103.39,299
79720,STANDARD,Big Spring,32.24,-101.47,25080
79721,PO BOX,Big Spring,32.24,-101.47,1787
79730,PO BOX,Coyanosa,31.24,-103.07,218
79731,STANDARD,Crane,31.39,-102.35,4780
79733,PO BOX,Forsan,32.1,-101.37,256
79734,STANDARD,Fort Davis,30.59,-103.9,1680
79735,STANDARD,Fort Stockton,30.89,-102.88,10960
79738,STANDARD,Gail,32.77,-101.45,310
79739,STANDARD,Garden City,31.87,-101.48,1080
79740,STANDARD,Girvin,31.07,-102.39,0
79741,STANDARD,Goldsmith,31.98,-102.61,360
79742,PO BOX,Grandfalls,31.34,-102.85,448
79743,PO BOX,Imperial,31.27,-102.69,251
79744,PO BOX,Iraan,30.91,-101.89,1404
79745,STANDARD,Kermit,31.85,-103.09,6530
79748,STANDARD,Knott,32.4,-101.64,249
79749,STANDARD,Lenorah,32.31,-101.88,270
79752,STANDARD,Mc Camey,31.13,-102.21,2160
79754,PO BOX,Mentone,31.71,-103.6,49
79755,STANDARD,Midkiff,31.63,-101.83,249
79756,STANDARD,Monahans,31.54,-102.84,9520
79758,STANDARD,Gardendale,32.02,-102.36,2830
79759,PO BOX,Notrees,31.92,-102.76,0
79760,PO BOX,Odessa,31.85,-102.36,1803
79761,STANDARD,Odessa,31.85,-102.36,29970
79762,STANDARD,Odessa,31.93,-102.36,36860
79763,STANDARD,Odessa,31.8,-102.47,36020
79764,STANDARD,Odessa,31.87,-102.54,23540
79765,STANDARD,Odessa,31.91,-102.26,13000
79766,STANDARD,Odessa,31.73,-102.41,7260
79768,PO BOX,Odessa,31.85,-102.36,1423
79769,PO BOX,Odessa,31.85,-102.36,828
79770,PO BOX,Orla,31.83,-103.91,38
79772,STANDARD,Pecos,31.4,-103.5,9700
79776,PO BOX,Penwell,31.73,-102.59,21
79777,PO BOX,Pyote,31.53,-103.12,172
79778,PO BOX,Rankin,31.22,-101.93,803
79780,PO BOX,Saragosa,31.03,-103.66,168
79781,PO BOX,Sheffield,30.69,-101.82,346
79782,STANDARD,Stanton,32.12,-101.79,4460
79783,STANDARD,Tarzan,32.31,-101.98,196
79785,PO BOX,Toyah,31.31,-103.79,58
79786,PO BOX,Toyahvale,30.94,-103.77,29
79788,PO BOX,Wickett,31.57,-103,402
79789,PO BOX,Wink,31.75,-103.15,878
79821,STANDARD,Anthony,31.99,-106.59,4780
79830,STANDARD,Alpine,30.36,-103.66,4620
79831,PO BOX,Alpine,30.43,-103.33,1976
79832,UNIQUE,Alpine,30.36,-103.66,94
79834,PO BOX,Big Bend National Park,29.28,-103.18,208
79835,STANDARD,Canutillo,31.91,-106.59,11640
79836,STANDARD,Clint,31.59,-106.22,6460
79837,PO BOX,Dell City,31.93,-105.2,604
79838,PO BOX,Fabens,31.5,-106.15,8957
79839,STANDARD,Fort Hancock,31.33,-105.9,1560
79842,PO BOX,Marathon,30.2,-103.24,438
79843,STANDARD,Marfa,30.31,-104.02,2190
79845,STANDARD,Presidio,29.56,-104.36,6937
79846,PO BOX,Redford,29.45,-104.19,77
79847,STANDARD,Salt Flat,31.74,-105.08,105
79848,PO BOX,Sanderson,30.15,-102.4,729
79849,STANDARD,San Elizario,31.57,-106.26,13370
79851,PO BOX,Sierra Blanca,31.17,-105.35,521
79852,STANDARD,Terlingua,29.32,-103.62,600
79853,PO BOX,Tornillo,31.44,-106.08,3267
79854,STANDARD,Valentine,30.58,-104.49,136
79855,PO BOX,Van Horn,31.04,-104.83,2344
79901,STANDARD,El Paso,31.76,-106.48,12400
79902,STANDARD,El Paso,31.78,-106.5,17550
79903,STANDARD,El Paso,31.79,-106.44,15650
79904,STANDARD,El Paso,31.84,-106.43,29190
79905,STANDARD,El Paso,31.77,-106.43,22080
79906,STANDARD,El Paso,31.81,-106.4,6720
79907,STANDARD,El Paso,31.71,-106.33,50080
79908,STANDARD,El Paso,31.86,-106.38,3370
79910,STANDARD,El Paso,31.84,-106.43,795
79911,STANDARD,El Paso,31.89,-106.54,4300
79912,STANDARD,El Paso,31.85,-106.53,70780
79913,PO BOX,El Paso,31.84,-106.43,1514
79914,PO BOX,El Paso,31.84,-106.43,387
79915,STANDARD,El Paso,31.75,-106.37,33090
79916,STANDARD,Fort Bliss,31.81,-106.42,1576
79917,PO BOX,El Paso,31.84,-106.43,827
79918,STANDARD,Fort Bliss,31.84,-106.43,89
79920,PO BOX,El Paso,31.82,-106.45,77
79922,STANDARD,El Paso,31.81,-106.56,7710
79923,PO BOX,El Paso,31.84,-106.43,367
79924,STANDARD,El Paso,31.9,-106.41,54000
79925,STANDARD,El Paso,31.8,-106.36,35860
79926,PO BOX,El Paso,31.84,-106.43,423
79927,STANDARD,El Paso,31.64,-106.27,37480
79928,STANDARD,El Paso,31.65,-106.15,56050
79929,PO BOX,El Paso,31.84,-106.43,381
79930,STANDARD,El Paso,31.83,-106.48,23030
79931,PO BOX,El Paso,31.84,-106.43,241
79932,STANDARD,El Paso,31.87,-106.61,25330
79934,STANDARD,El Paso,31.95,-106.43,24380
79935,STANDARD,El Paso,31.77,-106.33,15260
79936,STANDARD,El Paso,31.78,-106.3,104460
79937,PO BOX,El Paso,31.84,-106.43,491
79938,STANDARD,El Paso,31.83,-105.97,70210
79940,PO BOX,El Paso,31.84,-106.43,38
79941,PO BOX,El Paso,31.84,-106.43,76
79942,PO BOX,El Paso,30.58,-101.33,80
79943,PO BOX,El Paso,31.84,-106.43,141
79944,PO BOX,El Paso,31.84,-106.43,93
79945,PO BOX,El Paso,31.84,-106.43,72
79946,PO BOX,El Paso,31.84,-106.43,54
79947,PO BOX,El Paso,31.84,-106.43,110
79948,PO BOX,El Paso,31.84,-106.43,91
79949,PO BOX,El Paso,31.84,-106.43,55
79950,PO BOX,El Paso,31.84,-106.43,89
79951,PO BOX,El Paso,31.84,-106.43,116
79952,PO BOX,El Paso,31.84,-106.43,82
79953,PO BOX,El Paso,31.84,-106.43,120
79954,PO BOX,El Paso,31.84,-106.43,52
79955,PO BOX,El Paso,31.84,-106.43,99
79958,UNIQUE,El Paso,31.84,-106.43,0
79960,UNIQUE,El Paso,31.84,-106.43,0
79961,UNIQUE,El Paso,31.84,-106.43,0
79968,UNIQUE,El Paso,31.84,-106.43,262
79976,UNIQUE,El Paso,31.84,-106.43,0
79978,UNIQUE,El Paso,31.84,-106.43,0
79980,UNIQUE,El Paso,31.84,-106.43,0
79990,PO BOX,El Paso,31.84,-106.43,0
79995,PO BOX,El Paso,31.84,-106.43,851
79996,PO BOX,El Paso,31.84,-106.43,713
79997,PO BOX,El Paso,31.84,-106.43,572
79998,PO BOX,El Paso,31.84,-106.43,0
79999,PO BOX,El Paso,31.84,-106.43,0
88510,PO BOX,El Paso,31.84,-106.43,0
88511,PO BOX,El Paso,31.84,-106.43,0
88512,PO BOX,El Paso,31.84,-106.43,0
88513,PO BOX,El Paso,31.84,-106.43,0
88514,PO BOX,El Paso,31.84,-106.43,0
88515,PO BOX,El Paso,31.84,-106.43,0
88516,PO BOX,El Paso,31.84,-106.43,0
88517,PO BOX,El Paso,31.84,-106.43,0
88518,PO BOX,El Paso,31.84,-106.43,0
88519,PO BOX,El Paso,31.84,-106.43,0
88520,PO BOX,El Paso,31.84,-106.43,0
88521,PO BOX,El Paso,31.84,-106.43,0
88523,PO BOX,El Paso,31.84,-106.43,0
88524,PO BOX,El Paso,31.84,-106.43,0
88525,PO BOX,El Paso,31.84,-106.43,0
88526,PO BOX,El Paso,31.84,-106.43,0
88527,PO BOX,El Paso,31.84,-106.43,0
88528,PO BOX,El Paso,31.84,-106.43,0
88529,PO BOX,El Paso,31.84,-106.43,0
88530,PO BOX,El Paso,31.84,-106.43,0
88531,PO BOX,El Paso,31.84,-106.43,0
88532,PO BOX,El Paso,31.84,-106.43,0
88533,PO BOX,El Paso,31.84,-106.43,0
88534,PO BOX,El Paso,31.84,-106.43,0
88535,PO BOX,El Paso,31.84,-106.43,0
88536,PO BOX,El Paso,31.84,-106.43,0
88538,PO BOX,El Paso,31.84,-106.43,0
88539,PO BOX,El Paso,31.84,-106.43,0
88540,PO BOX,El Paso,31.84,-106.43,0
88541,PO BOX,El Paso,31.84,-106.43,0
88542,PO BOX,El Paso,31.84,-106.43,0
88543,PO BOX,El Paso,31.84,-106.43,0
88544,PO BOX,El Paso,31.84,-106.43,0
88545,PO BOX,El Paso,31.84,-106.43,0
88546,PO BOX,El Paso,31.84,-106.43,0
88547,PO BOX,El Paso,31.84,-106.43,0
88548,PO BOX,El Paso,31.84,-106.43,0
88549,PO BOX,El Paso,31.84,-106.43,0
88550,PO BOX,El Paso,31.84,-106.43,0
88553,PO BOX,El Paso,31.84,-106.43,0
88554,PO BOX,El Paso,31.84,-106.43,0
88555,PO BOX,El Paso,31.84,-106.43,0
88556,PO BOX,El Paso,31.84,-106.43,0
88557,PO BOX,El Paso,31.84,-106.43,0
88558,PO BOX,El Paso,31.84,-106.43,0
88559,PO BOX,El Paso,31.84,-106.43,0
88560,PO BOX,El Paso,31.84,-106.43,0
88561,PO BOX,El Paso,31.84,-106.43,0
88562,PO BOX,El Paso,31.84,-106.43,0
88563,PO BOX,El Paso,31.84,-106.43,0
88565,PO BOX,El Paso,31.84,-106.43,0
88566,PO BOX,El Paso,31.84,-106.43,0
88567,PO BOX,El Paso,31.84,-106.43,0
88568,PO BOX,El Paso,31.84,-106.43,0
88569,PO BOX,El Paso,31.84,-106.43,0
88570,PO BOX,El Paso,31.84,-106.43,0
88571,PO BOX,El Paso,31.84,-106.43,0
88572,PO BOX,El Paso,31.84,-106.43,0
88573,PO BOX,El Paso,31.84,-106.43,0
88574,PO BOX,El Paso,31.84,-106.43,0
88575,PO BOX,El Paso,31.84,-106.43,0
88576,PO BOX,El Paso,31.84,-106.43,0
88577,PO BOX,El Paso,31.84,-106.43,0
88578,PO BOX,El Paso,31.84,-106.43,0
88579,PO BOX,El Paso,31.84,-106.43,0
88580,PO BOX,El Paso,31.84,-106.43,0
88581,PO BOX,El Paso,31.84,-106.43,0
88582,PO BOX,El Paso,31.84,-106.43,0
88583,PO BOX,El Paso,31.84,-106.43,0
88584,PO BOX,El Paso,31.84,-106.43,0
88585,PO BOX,El Paso,31.84,-106.43,0
88586,PO BOX,El Paso,31.84,-106.43,0
88587,PO BOX,El Paso,31.84,-106.43,0
88588,PO BOX,El Paso,31.84,-106.43,0
88589,PO BOX,El Paso,31.84,-106.43,0
88590,PO BOX,El Paso,31.84,-106.43,0
88595,PO BOX,El Paso,31.84,-106.43,0